{
"type": "FeatureCollection",
"name": "zhongxi_li",
"features": [
{ "type": "Feature", "properties": { "COUNTYNAME": "臺南市", "TOWNNAME": "中西區", "VILLNAME": "法華里" }, "geometry": { "type": "Polygon", "coordinates": [ [ [ 120.209405484000058, 22.984516189000033 ], [ 120.209386401000074, 22.984480372000064 ], [ 120.209680370000115, 22.984349669000039 ], [ 120.20985857900007, 22.984221959000024 ], [ 120.210093098000016, 22.984035007000045 ], [ 120.210096801000077, 22.984036133000075 ], [ 120.210150880000015, 22.984052604000055 ], [ 120.210197121000078, 22.984093470000062 ], [ 120.210249204000093, 22.984176188000049 ], [ 120.210322604000112, 22.984292760000073 ], [ 120.210410311000032, 22.984383499000046 ], [ 120.210543496000014, 22.984463178000055 ], [ 120.210920702000067, 22.98461405200004 ], [ 120.210984892000056, 22.984634014000051 ], [ 120.211083010000038, 22.984664526000074 ], [ 120.211116076000053, 22.984672924000051 ], [ 120.211191810000059, 22.98469215700004 ], [ 120.211197081000023, 22.984691433000023 ], [ 120.211207764000051, 22.98468996400004 ], [ 120.211201089000042, 22.984561068000062 ], [ 120.211189989000104, 22.984314586000039 ], [ 120.211184396000021, 22.984198582000033 ], [ 120.211159775000056, 22.98358238000003 ], [ 120.211144800000056, 22.983463432000065 ], [ 120.211142333000112, 22.983348898000031 ], [ 120.211149208000052, 22.983244569000078 ], [ 120.211165584000014, 22.983122879000064 ], [ 120.211188213000014, 22.983004117000064 ], [ 120.211217155000099, 22.982876691000058 ], [ 120.211311515000034, 22.982610642000054 ], [ 120.211358387000018, 22.982502656000065 ], [ 120.211394055000028, 22.982449980000069 ], [ 120.211501338000062, 22.982244136000077 ], [ 120.211564586, 22.982126163000032 ], [ 120.21161126800007, 22.982050895000043 ], [ 120.211682700000097, 22.981929186000059 ], [ 120.211710268000047, 22.981866402000037 ], [ 120.211759973000085, 22.981738303000043 ], [ 120.211795730000063, 22.981670528000052 ], [ 120.211848013, 22.981567598000026 ], [ 120.211875520000035, 22.981514890000028 ], [ 120.21190574700006, 22.981462186000044 ], [ 120.212010060000011, 22.981254865000039 ], [ 120.211933614000031, 22.981253989000038 ], [ 120.211733866000031, 22.981254342000057 ], [ 120.211544953000043, 22.981258100000048 ], [ 120.211281534000022, 22.981255472000043 ], [ 120.211162848000072, 22.98125488200003 ], [ 120.210982651000108, 22.981253326000058 ], [ 120.210800271000039, 22.981253765000076 ], [ 120.210463004000076, 22.981256123000037 ], [ 120.210327684000049, 22.981253446000039 ], [ 120.210162690000061, 22.981251297000028 ], [ 120.209758186000045, 22.981246507000037 ], [ 120.209677107000061, 22.981245546000025 ], [ 120.209523668000088, 22.981247474000043 ], [ 120.209348541000054, 22.981245275000049 ], [ 120.208085191, 22.981286355000066 ], [ 120.207142441000087, 22.98131780500006 ], [ 120.206311677000031, 22.981336267000074 ], [ 120.205499168000074, 22.981364928000062 ], [ 120.205499904000021, 22.981507426000064 ], [ 120.205500704000087, 22.981662501000073 ], [ 120.205505644000027, 22.982619537000062 ], [ 120.205861586000083, 22.982614339000065 ], [ 120.205914008000036, 22.982613574000027 ], [ 120.206977542000118, 22.982598037000059 ], [ 120.207127592, 22.982595845000048 ], [ 120.207213699000022, 22.982593983000072 ], [ 120.207622358000094, 22.982585153000059 ], [ 120.208388033, 22.982568603000061 ], [ 120.208465482000065, 22.982567246000031 ], [ 120.208489039000028, 22.982695738000075 ], [ 120.208542577000117, 22.982831367000074 ], [ 120.20855756900005, 22.982897041000058 ], [ 120.208626415000026, 22.98331913800007 ], [ 120.208706516, 22.983690036000041 ], [ 120.208797494, 22.984114729000055 ], [ 120.20880330600005, 22.984114268000042 ], [ 120.208939088000079, 22.98470939200007 ], [ 120.209405484000058, 22.984516189000033 ] ] ] } },
{ "type": "Feature", "properties": { "COUNTYNAME": "臺南市", "TOWNNAME": "中西區", "VILLNAME": "赤嵌里" }, "geometry": { "type": "Polygon", "coordinates": [ [ [ 120.201253497000039, 22.999662403000059 ], [ 120.20153166800003, 22.999559775000023 ], [ 120.201884915000051, 22.999423598000078 ], [ 120.202270368000086, 22.999286021000046 ], [ 120.202596394000011, 22.999168517000044 ], [ 120.202833086000055, 22.999086009000052 ], [ 120.202915608000012, 22.999057244000028 ], [ 120.202976698000043, 22.999041884000064 ], [ 120.20327046500006, 22.99893518600004 ], [ 120.203397578000022, 22.998890879000044 ], [ 120.203589674000114, 22.998823923000032 ], [ 120.203854554000031, 22.998731191000047 ], [ 120.20411600500006, 22.998644723000041 ], [ 120.204190652000079, 22.998629421000032 ], [ 120.20426537100002, 22.998601568000026 ], [ 120.204316369000026, 22.998573613000076 ], [ 120.204367218000016, 22.998570734000054 ], [ 120.20451661900006, 22.998521311000047 ], [ 120.204633800000011, 22.998476441000037 ], [ 120.204681353000069, 22.998457870000038 ], [ 120.204895251000039, 22.998389962000033 ], [ 120.204929476000075, 22.998383103000037 ], [ 120.204956323000033, 22.998377723000033 ], [ 120.205187165000098, 22.998309908000067 ], [ 120.20530950400007, 22.99830031700003 ], [ 120.205556523000041, 22.998244077000038 ], [ 120.205679623000037, 22.99822044900003 ], [ 120.205896607000113, 22.998182171000053 ], [ 120.205985806000058, 22.998171366000065 ], [ 120.206126709000046, 22.998152396000023 ], [ 120.20627270600005, 22.998128755000039 ], [ 120.20641665200003, 22.998108850000051 ], [ 120.206659948000038, 22.998074452000026 ], [ 120.206789705, 22.998056365000025 ], [ 120.206985357, 22.998028281000074 ], [ 120.207006150000097, 22.998025152000025 ], [ 120.207190145000027, 22.997997440000063 ], [ 120.207421274000012, 22.997964857000056 ], [ 120.207680777000064, 22.997930530000076 ], [ 120.207802439000034, 22.997910522000041 ], [ 120.208085640000036, 22.997878264000065 ], [ 120.20824320700001, 22.997827045000065 ], [ 120.208349650000059, 22.997806500000024 ], [ 120.208533377000094, 22.997773454000026 ], [ 120.208644906000018, 22.997749420000048 ], [ 120.208845120000092, 22.997710597000037 ], [ 120.208941430000095, 22.997691164000059 ], [ 120.209438754000075, 22.997602872000073 ], [ 120.209756153000058, 22.997546490000047 ], [ 120.209886680000068, 22.997520202000032 ], [ 120.210218519000023, 22.997456711000041 ], [ 120.210408604, 22.997418133000053 ], [ 120.210590781000064, 22.997379506000073 ], [ 120.210704046000046, 22.997355920000075 ], [ 120.210837176000041, 22.997317058000078 ], [ 120.210935397000071, 22.997295587000053 ], [ 120.210997090000092, 22.997297346000039 ], [ 120.211082339000086, 22.997329973000035 ], [ 120.211128039000073, 22.997360939000032 ], [ 120.2112886110001, 22.997499303000041 ], [ 120.211341437000101, 22.997529574000055 ], [ 120.21140446600009, 22.997573792000026 ], [ 120.211454990000107, 22.997591599000032 ], [ 120.211521321000077, 22.997612427000035 ], [ 120.211573480000084, 22.99762146300003 ], [ 120.211687104000021, 22.997637570000052 ], [ 120.211750400000028, 22.997636060000048 ], [ 120.211837495000054, 22.997623669000063 ], [ 120.211964343000091, 22.99757672800007 ], [ 120.212067385000068, 22.997542483000075 ], [ 120.21228226300002, 22.997473214000024 ], [ 120.212255291000019, 22.997357926000063 ], [ 120.212200987000074, 22.997161438000035 ], [ 120.212184016000037, 22.997096381000063 ], [ 120.212171215000012, 22.99709015600007 ], [ 120.212016099000039, 22.997014724000053 ], [ 120.211872862000064, 22.996945068000059 ], [ 120.211668712000119, 22.996806301000049 ], [ 120.211641763000102, 22.996808404000035 ], [ 120.210901331000059, 22.996357372000034 ], [ 120.209890903000087, 22.995721318000051 ], [ 120.209650914, 22.995575131000066 ], [ 120.209491321000087, 22.995471371000065 ], [ 120.208489413000052, 22.994796301000065 ], [ 120.208474402000093, 22.994785487000058 ], [ 120.208146699000054, 22.994549427000038 ], [ 120.207537670000079, 22.994163012000058 ], [ 120.207419443000049, 22.994087551000064 ], [ 120.207285942000112, 22.994001743000069 ], [ 120.206696785000076, 22.993623058000026 ], [ 120.205838091000032, 22.993081806000077 ], [ 120.205813276000072, 22.993066992000024 ], [ 120.205454221000082, 22.992852676000041 ], [ 120.205069888000025, 22.992615537000063 ], [ 120.204596609000077, 22.992808410000066 ], [ 120.204285384000059, 22.992988265000065 ], [ 120.204163395000023, 22.993058763000079 ], [ 120.204144170000063, 22.993069873000024 ], [ 120.20410607000008, 22.993091893000042 ], [ 120.203063349000104, 22.993358854000064 ], [ 120.203033467000068, 22.993366503000061 ], [ 120.203283758000111, 22.994153855000036 ], [ 120.203509842000017, 22.994876005000037 ], [ 120.203662731, 22.995268201000044 ], [ 120.203731835000099, 22.995445466000035 ], [ 120.20394352400001, 22.995988461000024 ], [ 120.203976700000112, 22.996073555000066 ], [ 120.204062976000046, 22.996294855000031 ], [ 120.204072735000068, 22.996319889000063 ], [ 120.203532178000046, 22.996513393000043 ], [ 120.20349369600001, 22.996527453000056 ], [ 120.203066569000043, 22.996683501000064 ], [ 120.202970454000024, 22.99671780500006 ], [ 120.202457192000111, 22.996911658000045 ], [ 120.202443086000017, 22.996874969000032 ], [ 120.202209324000023, 22.99626697900004 ], [ 120.202176343000019, 22.996181214000046 ], [ 120.201989263000087, 22.996037258000058 ], [ 120.201962575000039, 22.995965900000044 ], [ 120.201907677, 22.995819115000074 ], [ 120.201894148000065, 22.995782941000073 ], [ 120.201759931000083, 22.995424076000063 ], [ 120.201384025000038, 22.995558177000078 ], [ 120.200546374000055, 22.995855017000054 ], [ 120.199623164000059, 22.996187838000026 ], [ 120.199661350000042, 22.996334207000075 ], [ 120.199694681000096, 22.99643306300004 ], [ 120.199838104000037, 22.996858423000049 ], [ 120.199851746000036, 22.99689888100005 ], [ 120.1999485340001, 22.997185924000064 ], [ 120.199958446000096, 22.997216036000054 ], [ 120.200038624000058, 22.997432110000034 ], [ 120.200086742000053, 22.997561782000048 ], [ 120.200133926000035, 22.997681150000062 ], [ 120.200141805000044, 22.997701082000049 ], [ 120.200253468000028, 22.997983571000077 ], [ 120.200267318000101, 22.998016671000073 ], [ 120.200315685000078, 22.998096048000036 ], [ 120.200386111000057, 22.998211634000029 ], [ 120.200601066000104, 22.998564415000033 ], [ 120.200944316000118, 22.99916163100005 ], [ 120.200995926000019, 22.999251422000043 ], [ 120.201207526000076, 22.999589054000069 ], [ 120.201239165000061, 22.999639534000039 ], [ 120.20124877, 22.999664146000043 ], [ 120.201253497000039, 22.999662403000059 ] ] ] } },
{ "type": "Feature", "properties": { "COUNTYNAME": "臺南市", "TOWNNAME": "中西區", "VILLNAME": "永華里" }, "geometry": { "type": "Polygon", "coordinates": [ [ [ 120.203063349000104, 22.993358854000064 ], [ 120.20410607000008, 22.993091893000042 ], [ 120.204144170000063, 22.993069873000024 ], [ 120.204163395000023, 22.993058763000079 ], [ 120.204285384000059, 22.992988265000065 ], [ 120.204596609000077, 22.992808410000066 ], [ 120.205069888000025, 22.992615537000063 ], [ 120.205491685000084, 22.992478805000076 ], [ 120.205513834000044, 22.992475039000055 ], [ 120.205999059000078, 22.992392548000055 ], [ 120.206670556000063, 22.992295821000027 ], [ 120.206684654000014, 22.99229378900003 ], [ 120.20766256200011, 22.992152911000062 ], [ 120.207834974000093, 22.99194962200005 ], [ 120.208275800000024, 22.991272870000046 ], [ 120.208818081000118, 22.990776397000047 ], [ 120.207694714000013, 22.989166732000058 ], [ 120.207656045000022, 22.989037687000064 ], [ 120.207563099000026, 22.989005381000027 ], [ 120.207454605000066, 22.988987844000064 ], [ 120.204606537000018, 22.989041222000026 ], [ 120.202242313000056, 22.989539611000055 ], [ 120.202256752000039, 22.989601358000073 ], [ 120.202557354000078, 22.990891900000065 ], [ 120.202769601000114, 22.991947005000043 ], [ 120.202925272000016, 22.992784473000029 ], [ 120.202958232000015, 22.992961777000062 ], [ 120.203033467000068, 22.993366503000061 ], [ 120.203063349000104, 22.993358854000064 ] ] ] } },
{ "type": "Feature", "properties": { "COUNTYNAME": "臺南市", "TOWNNAME": "中西區", "VILLNAME": "郡王里" }, "geometry": { "type": "Polygon", "coordinates": [ [ [ 120.207454605000066, 22.988987844000064 ], [ 120.207563099000026, 22.989005381000027 ], [ 120.207656045000022, 22.989037687000064 ], [ 120.207692887, 22.988989728000035 ], [ 120.207917787000042, 22.988696979000053 ], [ 120.208257141000104, 22.988277253000035 ], [ 120.208471269000029, 22.988012406000053 ], [ 120.208491678000087, 22.98798716400006 ], [ 120.208773076000057, 22.987639113000057 ], [ 120.209181824000098, 22.987133540000059 ], [ 120.209232088000022, 22.987073113000065 ], [ 120.209326841, 22.98695920800003 ], [ 120.209937894000063, 22.986250235000057 ], [ 120.210669327000119, 22.985446810000042 ], [ 120.210964157000035, 22.985136331000035 ], [ 120.211200019000103, 22.984815792000063 ], [ 120.211213344000043, 22.984797681000032 ], [ 120.211207764000051, 22.98468996400004 ], [ 120.211197081000023, 22.984691433000023 ], [ 120.211191810000059, 22.98469215700004 ], [ 120.211116076000053, 22.984672924000051 ], [ 120.211083010000038, 22.984664526000074 ], [ 120.210984892000056, 22.984634014000051 ], [ 120.210920702000067, 22.98461405200004 ], [ 120.210543496000014, 22.984463178000055 ], [ 120.210410311000032, 22.984383499000046 ], [ 120.210322604000112, 22.984292760000073 ], [ 120.210249204000093, 22.984176188000049 ], [ 120.210197121000078, 22.984093470000062 ], [ 120.210150880000015, 22.984052604000055 ], [ 120.210096801000077, 22.984036133000075 ], [ 120.210093098000016, 22.984035007000045 ], [ 120.20985857900007, 22.984221959000024 ], [ 120.209680370000115, 22.984349669000039 ], [ 120.209386401000074, 22.984480372000064 ], [ 120.209405484000058, 22.984516189000033 ], [ 120.208939088000079, 22.98470939200007 ], [ 120.20880330600005, 22.984114268000042 ], [ 120.208797494, 22.984114729000055 ], [ 120.208706516, 22.983690036000041 ], [ 120.208626415000026, 22.98331913800007 ], [ 120.20855756900005, 22.982897041000058 ], [ 120.208542577000117, 22.982831367000074 ], [ 120.208489039000028, 22.982695738000075 ], [ 120.208465482000065, 22.982567246000031 ], [ 120.208388033, 22.982568603000061 ], [ 120.207622358000094, 22.982585153000059 ], [ 120.207213699000022, 22.982593983000072 ], [ 120.207127592, 22.982595845000048 ], [ 120.206977542000118, 22.982598037000059 ], [ 120.205914008000036, 22.982613574000027 ], [ 120.205861586000083, 22.982614339000065 ], [ 120.205505644000027, 22.982619537000062 ], [ 120.205500704000087, 22.981662501000073 ], [ 120.205499904000021, 22.981507426000064 ], [ 120.205499168000074, 22.981364928000062 ], [ 120.205451645000039, 22.981366604000073 ], [ 120.204965528000116, 22.981383753000046 ], [ 120.203731120000043, 22.981397934000029 ], [ 120.20369909100009, 22.981398200000058 ], [ 120.20370554100009, 22.981446722000044 ], [ 120.203759109000089, 22.981849699000065 ], [ 120.203789492000055, 22.982069840000065 ], [ 120.203793589000043, 22.982107275000033 ], [ 120.203818392000017, 22.982300008000038 ], [ 120.203861521000022, 22.982620281000038 ], [ 120.203924592000021, 22.983283650000033 ], [ 120.20397962100003, 22.98368894500004 ], [ 120.20401082300009, 22.984012110000037 ], [ 120.204014587000074, 22.984051110000053 ], [ 120.204087850000064, 22.984796471000038 ], [ 120.204125527000087, 22.985088690000055 ], [ 120.204141734000018, 22.985216986000069 ], [ 120.204146519, 22.985254853000072 ], [ 120.20418458000006, 22.985542081000062 ], [ 120.20418961200005, 22.985580072000062 ], [ 120.204232587000092, 22.985903923000023 ], [ 120.204237550000016, 22.985941316000037 ], [ 120.204278949000013, 22.986282849000077 ], [ 120.204320502000087, 22.986625650000065 ], [ 120.204345181, 22.98682922100005 ], [ 120.204355021000083, 22.986910386000034 ], [ 120.204358968000065, 22.986942941000052 ], [ 120.204366981000021, 22.987020437000069 ], [ 120.204384521000065, 22.987190046000023 ], [ 120.204418626, 22.987436030000026 ], [ 120.20448332300009, 22.98790264400003 ], [ 120.204553464000014, 22.988550833000033 ], [ 120.204557823000073, 22.988591113000041 ], [ 120.204606537000018, 22.989041222000026 ], [ 120.207454605000066, 22.988987844000064 ] ] ] } },
{ "type": "Feature", "properties": { "COUNTYNAME": "臺南市", "TOWNNAME": "中西區", "VILLNAME": "西湖里" }, "geometry": { "type": "Polygon", "coordinates": [ [ [ 120.186951375000035, 23.000412620000077 ], [ 120.186922699000093, 23.000075983000045 ], [ 120.186878953000019, 22.999882701000047 ], [ 120.186771444000101, 22.999087571000075 ], [ 120.186750685000106, 22.998934026000029 ], [ 120.186746970000058, 22.998922875000062 ], [ 120.18601711000008, 22.998979356000063 ], [ 120.184748551000098, 22.999148914000045 ], [ 120.182541658000105, 22.999137524000048 ], [ 120.180386323000107, 22.999094759000059 ], [ 120.180130226000074, 22.999104720000048 ], [ 120.180127612000092, 22.999104818000035 ], [ 120.180126500000028, 22.999129512000025 ], [ 120.180123556000012, 22.999194929000055 ], [ 120.180109785000013, 22.999500985000054 ], [ 120.180108085000029, 22.999538686000051 ], [ 120.1801069710001, 22.999563407000039 ], [ 120.18009677100008, 22.999966207000057 ], [ 120.180084346000058, 23.000456302000032 ], [ 120.180070691000083, 23.000841938000065 ], [ 120.180057892000036, 23.001203196000063 ], [ 120.180046487000027, 23.001304122000079 ], [ 120.180025675000024, 23.001482557000031 ], [ 120.180024098000104, 23.001496073000055 ], [ 120.179993220000028, 23.002139888000045 ], [ 120.179962489000104, 23.002760751000039 ], [ 120.179967550000015, 23.002966006000065 ], [ 120.179968012000018, 23.002984795000032 ], [ 120.179948664000108, 23.00338873100003 ], [ 120.179942244000017, 23.00379668000005 ], [ 120.179940317000046, 23.003937703000076 ], [ 120.179960208000011, 23.004461811000056 ], [ 120.179970859000036, 23.004545929000074 ], [ 120.179990790000033, 23.004703 ], [ 120.180015080000089, 23.004975792000039 ], [ 120.180025529000091, 23.005093159000069 ], [ 120.180056315000115, 23.005438918000038 ], [ 120.1801027140001, 23.005435115000068 ], [ 120.180395443000066, 23.005402797000045 ], [ 120.1809014910001, 23.005368757000042 ], [ 120.182162496000046, 23.00526198600005 ], [ 120.182375480000019, 23.005251819000023 ], [ 120.18256989200006, 23.005263831000036 ], [ 120.182772038000053, 23.005308925000065 ], [ 120.183087243000045, 23.005453504000059 ], [ 120.183499867000023, 23.005645223000045 ], [ 120.18402474200002, 23.005883628000049 ], [ 120.184798331000025, 23.006220666000047 ], [ 120.185709931000019, 23.006640388000051 ], [ 120.186270094000065, 23.00686207800004 ], [ 120.186270161000039, 23.006862104000049 ], [ 120.186272376000034, 23.006851776000076 ], [ 120.186421060000043, 23.006180598000071 ], [ 120.186440739000091, 23.006081866000045 ], [ 120.186523606000037, 23.005666090000034 ], [ 120.186563616000058, 23.005465352000044 ], [ 120.186648671000057, 23.005081434000033 ], [ 120.186715666000055, 23.004779050000025 ], [ 120.186832615000071, 23.004244669000059 ], [ 120.186916498000073, 23.003639104000058 ], [ 120.186942626000018, 23.003423231000056 ], [ 120.186996389000115, 23.002979423000056 ], [ 120.186995002000117, 23.00274640400005 ], [ 120.187017776000062, 23.002427548000071 ], [ 120.187022221, 23.002165569000056 ], [ 120.187028190000092, 23.001827540000022 ], [ 120.187031508000018, 23.001632613000027 ], [ 120.187017231000027, 23.001188459000048 ], [ 120.187004082000044, 23.001040429000057 ], [ 120.186969026000043, 23.000622382000074 ], [ 120.186955336000096, 23.000459113000034 ], [ 120.186951375000035, 23.000412620000077 ] ] ] } },
{ "type": "Feature", "properties": { "COUNTYNAME": "臺南市", "TOWNNAME": "中西區", "VILLNAME": "西賢里" }, "geometry": { "type": "Polygon", "coordinates": [ [ [ 120.173947162000104, 23.006197285000042 ], [ 120.174019764000036, 23.006128801000045 ], [ 120.174074923000035, 23.006078355000056 ], [ 120.17412381500003, 23.006056064000063 ], [ 120.174212216000114, 23.006050883000057 ], [ 120.174312805000113, 23.006045764000078 ], [ 120.174416474000054, 23.006035026000063 ], [ 120.174556813000095, 23.00600756800003 ], [ 120.174767443000064, 23.005946648000076 ], [ 120.174862076000068, 23.005918948000044 ], [ 120.174916905000032, 23.005922055000042 ], [ 120.175029614000096, 23.005928269000037 ], [ 120.175157506000119, 23.005943032000062 ], [ 120.175207626000088, 23.00596276300007 ], [ 120.175289968000016, 23.005951913000047 ], [ 120.175784579000037, 23.005793819000075 ], [ 120.176723566000078, 23.005719745000079 ], [ 120.177969664000102, 23.005613101000051 ], [ 120.178774542000042, 23.00554396900003 ], [ 120.180056315000115, 23.005438918000038 ], [ 120.180025529000091, 23.005093159000069 ], [ 120.180015080000089, 23.004975792000039 ], [ 120.179990790000033, 23.004703 ], [ 120.179970859000036, 23.004545929000074 ], [ 120.179960208000011, 23.004461811000056 ], [ 120.179940317000046, 23.003937703000076 ], [ 120.179942244000017, 23.00379668000005 ], [ 120.179948664000108, 23.00338873100003 ], [ 120.179968012000018, 23.002984795000032 ], [ 120.179967550000015, 23.002966006000065 ], [ 120.179962489000104, 23.002760751000039 ], [ 120.179993220000028, 23.002139888000045 ], [ 120.180024098000104, 23.001496073000055 ], [ 120.180025675000024, 23.001482557000031 ], [ 120.180046487000027, 23.001304122000079 ], [ 120.180057892000036, 23.001203196000063 ], [ 120.180070691000083, 23.000841938000065 ], [ 120.180084346000058, 23.000456302000032 ], [ 120.18009677100008, 22.999966207000057 ], [ 120.1801069710001, 22.999563407000039 ], [ 120.180108085000029, 22.999538686000051 ], [ 120.180109785000013, 22.999500985000054 ], [ 120.180123556000012, 22.999194929000055 ], [ 120.180126500000028, 22.999129512000025 ], [ 120.180127612000092, 22.999104818000035 ], [ 120.175354817000084, 22.999283064000053 ], [ 120.174886305000086, 22.99931222500004 ], [ 120.17264142800002, 23.000086117000023 ], [ 120.168824081000025, 23.001420615000029 ], [ 120.168813244000035, 23.001424703000055 ], [ 120.167749730000082, 23.001825834000044 ], [ 120.167049848000033, 23.001930509000033 ], [ 120.165296995000062, 23.002597125000023 ], [ 120.165293230000088, 23.002601060000075 ], [ 120.165264324000077, 23.002631716000053 ], [ 120.165237848000061, 23.002659794000067 ], [ 120.165234874000021, 23.002662950000058 ], [ 120.165160297000057, 23.002722627000026 ], [ 120.165038173000084, 23.002835453000046 ], [ 120.164954280000075, 23.002901501000053 ], [ 120.164884568000048, 23.002924730000075 ], [ 120.164807859, 23.002954369000065 ], [ 120.164759042000014, 23.00297340700007 ], [ 120.164614820000111, 23.003045579000059 ], [ 120.164530992000095, 23.003100910000057 ], [ 120.164449579, 23.003141233000065 ], [ 120.164375177000011, 23.003173023000045 ], [ 120.164249676000054, 23.003217403000065 ], [ 120.164168636000113, 23.003242999000065 ], [ 120.164038606000076, 23.003270198000052 ], [ 120.163871499000038, 23.003292918000056 ], [ 120.163794842000016, 23.003313970000079 ], [ 120.163650990000065, 23.003326078000043 ], [ 120.16347470300002, 23.003333732000044 ], [ 120.163295987000083, 23.003358542000058 ], [ 120.163137837000022, 23.003432781000072 ], [ 120.163056528000084, 23.003455946000031 ], [ 120.162979805000077, 23.00348772600006 ], [ 120.162930977000087, 23.003508922000037 ], [ 120.162830797000083, 23.003583458000037 ], [ 120.162756366000053, 23.003619537000077 ], [ 120.162702859000092, 23.003647139000066 ], [ 120.162523558000089, 23.003766319000079 ], [ 120.162472397000101, 23.003789635000032 ], [ 120.162386725000033, 23.003825330000041 ], [ 120.162149314000089, 23.00396564700003 ], [ 120.162077138000086, 23.004012458000034 ], [ 120.161998015000108, 23.004057088000025 ], [ 120.161767630000099, 23.004186716000049 ], [ 120.161688562000109, 23.004222760000061 ], [ 120.161642011000026, 23.004250397000078 ], [ 120.161402323000061, 23.004384262000031 ], [ 120.161323252000102, 23.00442031700004 ], [ 120.161232483000049, 23.004473455000038 ], [ 120.160964782000065, 23.004637208000076 ], [ 120.160869359000117, 23.004692483000042 ], [ 120.160483627000076, 23.004920007000067 ], [ 120.16031831500004, 23.005026390000069 ], [ 120.160106427000073, 23.005164699000034 ], [ 120.159798982000098, 23.005379709000067 ], [ 120.159584570000106, 23.005550171000039 ], [ 120.159458723000057, 23.005652337000072 ], [ 120.159578356000111, 23.005653639000059 ], [ 120.159838944000057, 23.005662944000051 ], [ 120.160149299000068, 23.005666165000036 ], [ 120.16045788800011, 23.005677301000048 ], [ 120.160821309000085, 23.005695067000033 ], [ 120.161107563000087, 23.00569506100004 ], [ 120.161261858000103, 23.005700638000064 ], [ 120.16156361000003, 23.005708569000035 ], [ 120.161669982000035, 23.005699605000075 ], [ 120.161771308000084, 23.005674769000052 ], [ 120.161893360000022, 23.005626237000058 ], [ 120.162025895000056, 23.005546038000034 ], [ 120.162110282000071, 23.005487799000036 ], [ 120.162381684000025, 23.005274046000068 ], [ 120.162650362000022, 23.005085132000033 ], [ 120.162803075000056, 23.004965793000054 ], [ 120.162932329000114, 23.004861791000053 ], [ 120.16303039200011, 23.004809962000024 ], [ 120.163107779000029, 23.00477389100007 ], [ 120.163233170000012, 23.004739660000041 ], [ 120.163296634000062, 23.004736808000075 ], [ 120.163492139000027, 23.004733074000058 ], [ 120.163691096000093, 23.004726190000042 ], [ 120.164013422000039, 23.00473422400006 ], [ 120.16409744300006, 23.004734666000047 ], [ 120.164202091000107, 23.004727282000033 ], [ 120.164325557000097, 23.004721108000069 ], [ 120.164467888000104, 23.004720271000053 ], [ 120.164851953000039, 23.004727030000026 ], [ 120.165109142, 23.00473155800006 ], [ 120.165270313000065, 23.004733981000072 ], [ 120.165486378000082, 23.004733531000056 ], [ 120.165632205000065, 23.004721603000064 ], [ 120.165822510000112, 23.004727347000028 ], [ 120.16604854600007, 23.004728683000053 ], [ 120.16620453500002, 23.004737426000077 ], [ 120.166355312000064, 23.004757247000043 ], [ 120.166408361000094, 23.004774973000053 ], [ 120.166656806000105, 23.004806399000074 ], [ 120.166804027000012, 23.004846816000054 ], [ 120.166956428000049, 23.004880922000041 ], [ 120.167057388000103, 23.00491475900003 ], [ 120.167228174000115, 23.004994545000045 ], [ 120.167462581000109, 23.005078234000052 ], [ 120.167625046000012, 23.005148867000059 ], [ 120.167855942000074, 23.005245233000039 ], [ 120.168011510000042, 23.005322167000031 ], [ 120.168223563000083, 23.005415266000057 ], [ 120.168379251000033, 23.005473174000031 ], [ 120.168584468000063, 23.005563055000039 ], [ 120.168806473000018, 23.005665426000064 ], [ 120.169073263000087, 23.005781006000063 ], [ 120.169348609000053, 23.005899808000038 ], [ 120.169528236000019, 23.005968940000059 ], [ 120.169760864000068, 23.006063726000036 ], [ 120.169921677000048, 23.006124837000073 ], [ 120.170309916000065, 23.006267538000031 ], [ 120.17057674800003, 23.00637677800006 ], [ 120.170809425000016, 23.006463623000059 ], [ 120.170989054000074, 23.006532761000074 ], [ 120.171293527000103, 23.00665646300007 ], [ 120.171397861000059, 23.006699831000049 ], [ 120.171741551000082, 23.006858052000041 ], [ 120.172071539000058, 23.007015190000061 ], [ 120.172286956000107, 23.007120990000033 ], [ 120.172368999000014, 23.007164240000066 ], [ 120.172485282000025, 23.007217180000055 ], [ 120.17268196200007, 23.007302261000063 ], [ 120.172852308000074, 23.007396778000043 ], [ 120.173083179000059, 23.007499479000046 ], [ 120.173176286000057, 23.007539201000043 ], [ 120.173224982000079, 23.007364206000034 ], [ 120.173292883000045, 23.007223629000066 ], [ 120.173416118000091, 23.007004424000058 ], [ 120.173511719000089, 23.006818894000048 ], [ 120.173601122000036, 23.006650243000024 ], [ 120.17367182800001, 23.00654914100005 ], [ 120.173820459000012, 23.006330710000043 ], [ 120.173921687000075, 23.00622131700004 ], [ 120.173947162000104, 23.006197285000042 ] ] ] } },
{ "type": "Feature", "properties": { "COUNTYNAME": "臺南市", "TOWNNAME": "中西區", "VILLNAME": "五條港里" }, "geometry": { "type": "Polygon", "coordinates": [ [ [ 120.198954061000109, 23.000477947000036 ], [ 120.199098355000046, 23.000433211000029 ], [ 120.199380239000106, 23.000331187000029 ], [ 120.199651917000097, 23.000235366000027 ], [ 120.200025484000093, 23.000102421000065 ], [ 120.200382069000057, 22.999975676000076 ], [ 120.200767521000103, 22.999838102000069 ], [ 120.20113535400003, 22.999705992000031 ], [ 120.20124877, 22.999664146000043 ], [ 120.201239165000061, 22.999639534000039 ], [ 120.201207526000076, 22.999589054000069 ], [ 120.200995926000019, 22.999251422000043 ], [ 120.200944316000118, 22.99916163100005 ], [ 120.200601066000104, 22.998564415000033 ], [ 120.200386111000057, 22.998211634000029 ], [ 120.200315685000078, 22.998096048000036 ], [ 120.200267318000101, 22.998016671000073 ], [ 120.200253468000028, 22.997983571000077 ], [ 120.200141805000044, 22.997701082000049 ], [ 120.200133926000035, 22.997681150000062 ], [ 120.200086742000053, 22.997561782000048 ], [ 120.200038624000058, 22.997432110000034 ], [ 120.199958446000096, 22.997216036000054 ], [ 120.1999485340001, 22.997185924000064 ], [ 120.199851746000036, 22.99689888100005 ], [ 120.199838104000037, 22.996858423000049 ], [ 120.199694681000096, 22.99643306300004 ], [ 120.199661350000042, 22.996334207000075 ], [ 120.199623164000059, 22.996187838000026 ], [ 120.199576989000093, 22.996084021000058 ], [ 120.19957578900005, 22.996078868000041 ], [ 120.199571663000029, 22.996061155000064 ], [ 120.199476133000076, 22.995650948000048 ], [ 120.199268368000048, 22.994780406000075 ], [ 120.19920602000002, 22.99451706900004 ], [ 120.199187002000031, 22.994523335000054 ], [ 120.197872533, 22.994956392000063 ], [ 120.19753696600003, 22.995086733000051 ], [ 120.196603325000069, 22.995358967000072 ], [ 120.19690252700002, 22.996147473000065 ], [ 120.196953177000069, 22.996276747000024 ], [ 120.197060364000095, 22.99655032000004 ], [ 120.197209180000073, 22.99689408200004 ], [ 120.197339281000041, 22.99723780100004 ], [ 120.197554836000108, 22.997716254000068 ], [ 120.197649664000096, 22.997926739000036 ], [ 120.197723432000089, 22.998090495000042 ], [ 120.197775523000018, 22.998206112000048 ], [ 120.197779997000112, 22.998216040000045 ], [ 120.197852477000083, 22.998408393000034 ], [ 120.19791245600004, 22.998569578000058 ], [ 120.197943272000089, 22.998652389000029 ], [ 120.198023170000056, 22.998861340000076 ], [ 120.198202004000109, 22.999288104000073 ], [ 120.198248252000099, 22.999398452000037 ], [ 120.198301909000065, 22.999522309000042 ], [ 120.198335859000053, 22.999600661000045 ], [ 120.19864207, 23.000307440000029 ], [ 120.198690753000051, 23.00041980900005 ], [ 120.19874014800007, 23.000533818000065 ], [ 120.198747829000013, 23.000551521000034 ], [ 120.198954061000109, 23.000477947000036 ] ] ] } },
{ "type": "Feature", "properties": { "COUNTYNAME": "臺南市", "TOWNNAME": "中西區", "VILLNAME": "南美里" }, "geometry": { "type": "Polygon", "coordinates": [ [ [ 120.202970454000024, 22.99671780500006 ], [ 120.203066569000043, 22.996683501000064 ], [ 120.20349369600001, 22.996527453000056 ], [ 120.203532178000046, 22.996513393000043 ], [ 120.204072735000068, 22.996319889000063 ], [ 120.204062976000046, 22.996294855000031 ], [ 120.203976700000112, 22.996073555000066 ], [ 120.20394352400001, 22.995988461000024 ], [ 120.203731835000099, 22.995445466000035 ], [ 120.203662731, 22.995268201000044 ], [ 120.203509842000017, 22.994876005000037 ], [ 120.203283758000111, 22.994153855000036 ], [ 120.203033467000068, 22.993366503000061 ], [ 120.202958232000015, 22.992961777000062 ], [ 120.202925272000016, 22.992784473000029 ], [ 120.202769601000114, 22.991947005000043 ], [ 120.202557354000078, 22.990891900000065 ], [ 120.202256752000039, 22.989601358000073 ], [ 120.201294279000081, 22.989803035000023 ], [ 120.200868171000025, 22.98989232100007 ], [ 120.200355425000112, 22.989999766000039 ], [ 120.199293367000109, 22.990194362000068 ], [ 120.199283006000087, 22.990196126000058 ], [ 120.199009347000015, 22.990242683000076 ], [ 120.198676384, 22.990299331000074 ], [ 120.198619846000042, 22.990308949000053 ], [ 120.198355204000109, 22.990350962000036 ], [ 120.198180238000077, 22.990378733000057 ], [ 120.197849477000091, 22.990543797000043 ], [ 120.197807259000115, 22.990564867000046 ], [ 120.197920338000017, 22.990863442000034 ], [ 120.197988244000044, 22.991058335000048 ], [ 120.198001584000053, 22.991096620000064 ], [ 120.198043541000061, 22.991217062000032 ], [ 120.198053106000089, 22.991243121000025 ], [ 120.198185561000059, 22.991575230000024 ], [ 120.198264531000063, 22.991773232000071 ], [ 120.198460404000116, 22.992320273000075 ], [ 120.198617191000039, 22.992757465000068 ], [ 120.198636440000087, 22.99281114200005 ], [ 120.198784144000115, 22.993262741000024 ], [ 120.198955885000032, 22.993787819000033 ], [ 120.198970871000029, 22.993833632000076 ], [ 120.199032541000065, 22.994022165000047 ], [ 120.19920602000002, 22.99451706900004 ], [ 120.199268368000048, 22.994780406000075 ], [ 120.199476133000076, 22.995650948000048 ], [ 120.199571663000029, 22.996061155000064 ], [ 120.19957578900005, 22.996078868000041 ], [ 120.199576989000093, 22.996084021000058 ], [ 120.199623164000059, 22.996187838000026 ], [ 120.200546374000055, 22.995855017000054 ], [ 120.201384025000038, 22.995558177000078 ], [ 120.201759931000083, 22.995424076000063 ], [ 120.201894148000065, 22.995782941000073 ], [ 120.201907677, 22.995819115000074 ], [ 120.201962575000039, 22.995965900000044 ], [ 120.201989263000087, 22.996037258000058 ], [ 120.202176343000019, 22.996181214000046 ], [ 120.202209324000023, 22.99626697900004 ], [ 120.202443086000017, 22.996874969000032 ], [ 120.202457192000111, 22.996911658000045 ], [ 120.202970454000024, 22.99671780500006 ] ] ] } },
{ "type": "Feature", "properties": { "COUNTYNAME": "臺南市", "TOWNNAME": "中西區", "VILLNAME": "城隍里" }, "geometry": { "type": "Polygon", "coordinates": [ [ [ 120.212144038000019, 22.996943122000062 ], [ 120.212092497000071, 22.996747929000037 ], [ 120.212027660000103, 22.996456471000045 ], [ 120.211971041000083, 22.996181733000071 ], [ 120.211943998000038, 22.996064892000049 ], [ 120.211906218000081, 22.995887720000042 ], [ 120.211879153000041, 22.995774719000053 ], [ 120.211847141000021, 22.995559096000022 ], [ 120.211842130000036, 22.995468020000033 ], [ 120.211815530000081, 22.995275508000077 ], [ 120.211804648000111, 22.995161094000025 ], [ 120.211787376000075, 22.994953674000044 ], [ 120.211783356000069, 22.994851045000075 ], [ 120.211770346000094, 22.994705629000066 ], [ 120.211755233000076, 22.994503932000043 ], [ 120.21174462700003, 22.994362423000041 ], [ 120.211725045000094, 22.994154991000073 ], [ 120.211707718000071, 22.993957180000052 ], [ 120.211708269000042, 22.993863132000058 ], [ 120.211697905000051, 22.993660017000025 ], [ 120.211689259000082, 22.993558439000026 ], [ 120.21167441700004, 22.993329647000053 ], [ 120.211659417000078, 22.993128639000076 ], [ 120.211646933000111, 22.992892382000036 ], [ 120.211641462000102, 22.992795569000066 ], [ 120.211634366000112, 22.992670013000065 ], [ 120.211632344, 22.992620841000075 ], [ 120.211611202000086, 22.992284073000064 ], [ 120.211589803000038, 22.991991386000052 ], [ 120.211582215000021, 22.991806985000039 ], [ 120.211569148000081, 22.991571801000077 ], [ 120.211568693000117, 22.991567528000076 ], [ 120.211553178000031, 22.991421421000041 ], [ 120.211535434000098, 22.991163042000039 ], [ 120.211521781000101, 22.990925009000023 ], [ 120.211508142000071, 22.990684891000058 ], [ 120.211496435000072, 22.990543347000028 ], [ 120.211492105000048, 22.990426195000055 ], [ 120.2114899930001, 22.990358925000066 ], [ 120.211492904000011, 22.990289362000055 ], [ 120.211479260000033, 22.99005039900004 ], [ 120.211470489000021, 22.989834650000034 ], [ 120.211461498000062, 22.989657170000044 ], [ 120.211454344000117, 22.989594511000064 ], [ 120.211442229000113, 22.989522550000061 ], [ 120.211452800000075, 22.989429828000027 ], [ 120.211462710000092, 22.989399589000072 ], [ 120.211302920000094, 22.989359642000068 ], [ 120.211185851000096, 22.989301583000042 ], [ 120.211044989000015, 22.989207357000055 ], [ 120.208818081000118, 22.990776397000047 ], [ 120.208275800000024, 22.991272870000046 ], [ 120.207834974000093, 22.99194962200005 ], [ 120.20766256200011, 22.992152911000062 ], [ 120.206684654000014, 22.99229378900003 ], [ 120.206670556000063, 22.992295821000027 ], [ 120.205999059000078, 22.992392548000055 ], [ 120.205513834000044, 22.992475039000055 ], [ 120.205491685000084, 22.992478805000076 ], [ 120.205069888000025, 22.992615537000063 ], [ 120.205454221000082, 22.992852676000041 ], [ 120.205813276000072, 22.993066992000024 ], [ 120.205838091000032, 22.993081806000077 ], [ 120.206696785000076, 22.993623058000026 ], [ 120.207285942000112, 22.994001743000069 ], [ 120.207419443000049, 22.994087551000064 ], [ 120.207537670000079, 22.994163012000058 ], [ 120.208146699000054, 22.994549427000038 ], [ 120.208474402000093, 22.994785487000058 ], [ 120.208489413000052, 22.994796301000065 ], [ 120.209491321000087, 22.995471371000065 ], [ 120.209650914, 22.995575131000066 ], [ 120.209890903000087, 22.995721318000051 ], [ 120.210901331000059, 22.996357372000034 ], [ 120.211641763000102, 22.996808404000035 ], [ 120.211668712000119, 22.996806301000049 ], [ 120.211872862000064, 22.996945068000059 ], [ 120.212016099000039, 22.997014724000053 ], [ 120.212171215000012, 22.99709015600007 ], [ 120.212184016000037, 22.997096381000063 ], [ 120.212144038000019, 22.996943122000062 ] ] ] } },
{ "type": "Feature", "properties": { "COUNTYNAME": "臺南市", "TOWNNAME": "中西區", "VILLNAME": "西和里" }, "geometry": { "type": "Polygon", "coordinates": [ [ [ 120.193547691000049, 23.005203255000026 ], [ 120.19356171600009, 23.005124955000042 ], [ 120.193572784000025, 23.004974539000045 ], [ 120.193566757000099, 23.004849107000041 ], [ 120.193595143000039, 23.004636084000026 ], [ 120.193602897, 23.004473111000038 ], [ 120.193609174000017, 23.004274075000069 ], [ 120.193602715000111, 23.004220743000076 ], [ 120.193631046000064, 23.004017121000061 ], [ 120.193643315000031, 23.003666074000023 ], [ 120.193655618000093, 23.003592477000041 ], [ 120.193696677000048, 23.003526847000046 ], [ 120.193741048000106, 23.003481531000034 ], [ 120.193752253000071, 23.00347008600005 ], [ 120.193704333000028, 23.003456340000071 ], [ 120.193500337000046, 23.003397820000032 ], [ 120.193353944000023, 23.003355835000036 ], [ 120.193049709000093, 23.00323925400005 ], [ 120.193027243000074, 23.003227999000046 ], [ 120.192874194000069, 23.003151326000022 ], [ 120.192641789000049, 23.003002647000073 ], [ 120.192631381000069, 23.002995153000029 ], [ 120.192275979000101, 23.002739306000024 ], [ 120.192040965000047, 23.002549404000035 ], [ 120.191938472000061, 23.002466585000036 ], [ 120.191841001000057, 23.002398435000032 ], [ 120.191726577000054, 23.002318433000028 ], [ 120.191045699000028, 23.001912046000029 ], [ 120.190622341000108, 23.001651118000041 ], [ 120.190477886000053, 23.001562086000035 ], [ 120.190696635000108, 23.001336499000047 ], [ 120.19089950800003, 23.001127279000059 ], [ 120.191192178000051, 23.000825729000042 ], [ 120.191241441000102, 23.000774956000043 ], [ 120.19147904700003, 23.000530182000034 ], [ 120.191849660000116, 23.000134745000025 ], [ 120.190742617000069, 22.999210173000051 ], [ 120.190355534000105, 22.998886425000023 ], [ 120.189968451000027, 22.998576754000055 ], [ 120.189764351, 22.998348018000058 ], [ 120.189613034000104, 22.998129841000036 ], [ 120.189461715000107, 22.997897588000058 ], [ 120.189359662000015, 22.99769348600006 ], [ 120.189292259000013, 22.997486861000027 ], [ 120.188563976000069, 22.997607965000043 ], [ 120.18843611200009, 22.99762922900004 ], [ 120.188230500000031, 22.997663417000069 ], [ 120.187354268000036, 22.997809111000038 ], [ 120.187326518000077, 22.997812927000041 ], [ 120.187208354000063, 22.997827356000073 ], [ 120.186641446000067, 22.997898504000034 ], [ 120.186611743000071, 22.997902232000058 ], [ 120.186554908000062, 22.997909364000066 ], [ 120.186590531000093, 22.998245990000044 ], [ 120.186710244000096, 22.99873864500006 ], [ 120.186716436000097, 22.998831245000076 ], [ 120.186746970000058, 22.998922875000062 ], [ 120.186750685000106, 22.998934026000029 ], [ 120.186771444000101, 22.999087571000075 ], [ 120.186878953000019, 22.999882701000047 ], [ 120.186922699000093, 23.000075983000045 ], [ 120.186951375000035, 23.000412620000077 ], [ 120.187965941000016, 23.000353416000053 ], [ 120.187946646000114, 23.000423248000061 ], [ 120.187937445000102, 23.000457138000058 ], [ 120.18793585100002, 23.000542182000061 ], [ 120.187939661000087, 23.000605183000062 ], [ 120.187940441000023, 23.000618169000063 ], [ 120.187955190000025, 23.000681245000067 ], [ 120.187989626000103, 23.000762425000062 ], [ 120.18803807300003, 23.000848715000075 ], [ 120.188130590000014, 23.000970160000065 ], [ 120.188218816000017, 23.001087612000049 ], [ 120.18832382100004, 23.001227205000077 ], [ 120.188492407000012, 23.001453085000037 ], [ 120.188599338000017, 23.001572982000027 ], [ 120.188634692000051, 23.00161262000006 ], [ 120.18867336400001, 23.001655984000024 ], [ 120.188691249000044, 23.001675060000025 ], [ 120.188794061000067, 23.001731033000056 ], [ 120.189061931000083, 23.001876869000057 ], [ 120.189475597000069, 23.002117049000049 ], [ 120.189610993000088, 23.002195903000029 ], [ 120.189900007, 23.002364212000032 ], [ 120.190323712, 23.002611369000078 ], [ 120.190391534000014, 23.002647724000042 ], [ 120.190457273000106, 23.002672082000061 ], [ 120.190556287000049, 23.002670526000031 ], [ 120.19061403, 23.002680577000035 ], [ 120.190669206000052, 23.002690182000038 ], [ 120.190692848000026, 23.002701845000047 ], [ 120.190935384000113, 23.002821509000057 ], [ 120.191115554000021, 23.002914416000067 ], [ 120.191178356000023, 23.002946779000069 ], [ 120.191375313000094, 23.003122747000077 ], [ 120.19144153000002, 23.003172582000047 ], [ 120.191478977000088, 23.003200766000077 ], [ 120.19171902700009, 23.003381428000068 ], [ 120.192001566000044, 23.003634874000056 ], [ 120.192176976000042, 23.003809797000031 ], [ 120.192287884000052, 23.003920389000029 ], [ 120.192507269000089, 23.004138506000061 ], [ 120.192538394000053, 23.004169139000055 ], [ 120.192813649000072, 23.004440048000049 ], [ 120.19296186300005, 23.004580855000029 ], [ 120.193116774000032, 23.004750143000024 ], [ 120.193393962000073, 23.005053049000026 ], [ 120.193486799000084, 23.005183337000062 ], [ 120.19350225300002, 23.005205028000034 ], [ 120.193547691000049, 23.005203255000026 ] ] ] } },
{ "type": "Feature", "properties": { "COUNTYNAME": "臺南市", "TOWNNAME": "中西區", "VILLNAME": "小西門里" }, "geometry": { "type": "Polygon", "coordinates": [ [ [ 120.197849477000091, 22.990543797000043 ], [ 120.198180238000077, 22.990378733000057 ], [ 120.198355204000109, 22.990350962000036 ], [ 120.198619846000042, 22.990308949000053 ], [ 120.198676384, 22.990299331000074 ], [ 120.199009347000015, 22.990242683000076 ], [ 120.199283006000087, 22.990196126000058 ], [ 120.199293367000109, 22.990194362000068 ], [ 120.200355425000112, 22.989999766000039 ], [ 120.200354801000117, 22.989972490000071 ], [ 120.200337023000088, 22.989576652000039 ], [ 120.200322111000105, 22.98923456600005 ], [ 120.200292458000035, 22.988901394000038 ], [ 120.200285429000019, 22.988749349000045 ], [ 120.200278048000087, 22.988657322000051 ], [ 120.200250782000012, 22.988334167000062 ], [ 120.200193673000058, 22.987023866000072 ], [ 120.200192412000092, 22.987001348000035 ], [ 120.200155541000072, 22.986342614000023 ], [ 120.200147831000095, 22.985966776000055 ], [ 120.200130417000082, 22.985118441000054 ], [ 120.200109099000088, 22.984357465000073 ], [ 120.200096486, 22.983907262000059 ], [ 120.200089700000035, 22.98315789000003 ], [ 120.200085215000058, 22.982662102000063 ], [ 120.200096812000083, 22.982404575000032 ], [ 120.20013821100008, 22.981485313000064 ], [ 120.200138451000043, 22.981444440000075 ], [ 120.199862512000095, 22.981448607000061 ], [ 120.198552351000103, 22.981466871000066 ], [ 120.197659550000026, 22.98148672700006 ], [ 120.197641741000098, 22.981487124000068 ], [ 120.197629480000046, 22.981936305000033 ], [ 120.197625835000053, 22.982693288000064 ], [ 120.197623523000061, 22.983173374000046 ], [ 120.197602460000098, 22.984390063000035 ], [ 120.197600033000072, 22.985153096000033 ], [ 120.19759770600001, 22.985884512000041 ], [ 120.197576459000061, 22.986460068000042 ], [ 120.19757323500005, 22.987311133000048 ], [ 120.19757262600001, 22.987468058000047 ], [ 120.197544546000017, 22.98746791700006 ], [ 120.197544487000073, 22.987496539000063 ], [ 120.197529709000037, 22.988546377000034 ], [ 120.197510129000079, 22.989021926000078 ], [ 120.197506964000013, 22.989098871000067 ], [ 120.19750272400006, 22.989201896000054 ], [ 120.197501145000047, 22.989240250000023 ], [ 120.197502824000026, 22.989254519000042 ], [ 120.197530626000116, 22.989490689000036 ], [ 120.197536680000098, 22.989542124000025 ], [ 120.197538810000083, 22.989560211000025 ], [ 120.197550508000063, 22.989659558000028 ], [ 120.197552199000029, 22.989666863000025 ], [ 120.197567351000089, 22.989732381000067 ], [ 120.197574653000061, 22.989763952000033 ], [ 120.19759827200005, 22.989866054000061 ], [ 120.197638273000052, 22.990039011000079 ], [ 120.197681579000118, 22.990196377000075 ], [ 120.19769008600008, 22.990227292000043 ], [ 120.197787249000044, 22.990507212000068 ], [ 120.197807259000115, 22.990564867000046 ], [ 120.197849477000091, 22.990543797000043 ] ] ] } },
{ "type": "Feature", "properties": { "COUNTYNAME": "臺南市", "TOWNNAME": "中西區", "VILLNAME": "兌悅里" }, "geometry": { "type": "Polygon", "coordinates": [ [ [ 120.193843297000058, 23.003377104000037 ], [ 120.194051346000037, 23.003155579000065 ], [ 120.194341195000106, 23.002856093000048 ], [ 120.194608858000038, 23.002583144000027 ], [ 120.194837328000062, 23.002346035000073 ], [ 120.195046660000116, 23.002124429000048 ], [ 120.195076055000072, 23.002093311000067 ], [ 120.195309673000111, 23.001845273000072 ], [ 120.195415343000036, 23.001742350000029 ], [ 120.195547988000044, 23.001661518000049 ], [ 120.195612488000052, 23.001643025000078 ], [ 120.195673542, 23.001633926000068 ], [ 120.195809411000027, 23.00158132200005 ], [ 120.196023332000095, 23.001510291000045 ], [ 120.19621690300005, 23.001442300000065 ], [ 120.196349344000055, 23.001395941000055 ], [ 120.196761966000054, 23.00124911100005 ], [ 120.19699627500006, 23.001168771000039 ], [ 120.197159289000069, 23.001110037000046 ], [ 120.197373248000076, 23.00103273600007 ], [ 120.197483147000071, 23.000994268000056 ], [ 120.197593982000058, 23.000955473000033 ], [ 120.197965861000057, 23.000820972000042 ], [ 120.198169596000071, 23.000753022000026 ], [ 120.198390349000078, 23.00067262400006 ], [ 120.198468459000082, 23.000644800000032 ], [ 120.198702750000052, 23.000567603000036 ], [ 120.198747829000013, 23.000551521000034 ], [ 120.19874014800007, 23.000533818000065 ], [ 120.198690753000051, 23.00041980900005 ], [ 120.19864207, 23.000307440000029 ], [ 120.198335859000053, 22.999600661000045 ], [ 120.198301909000065, 22.999522309000042 ], [ 120.198248252000099, 22.999398452000037 ], [ 120.198202004000109, 22.999288104000073 ], [ 120.198023170000056, 22.998861340000076 ], [ 120.197943272000089, 22.998652389000029 ], [ 120.19791245600004, 22.998569578000058 ], [ 120.197852477000083, 22.998408393000034 ], [ 120.197779997000112, 22.998216040000045 ], [ 120.197765977000017, 22.998221347000026 ], [ 120.196500218000097, 22.998700552000059 ], [ 120.196404714000096, 22.998732653000047 ], [ 120.195760469000106, 22.998949184000026 ], [ 120.195315991000029, 22.999098568000022 ], [ 120.195127334000063, 22.999161610000044 ], [ 120.195037679000052, 22.999193988000059 ], [ 120.193884829000012, 22.999610335000057 ], [ 120.193190365000078, 22.999854043000028 ], [ 120.193002788000058, 22.999919870000042 ], [ 120.192414531000054, 23.000130893000062 ], [ 120.192013737000025, 23.000270882000052 ], [ 120.191907947000118, 23.000182205000044 ], [ 120.191849660000116, 23.000134745000025 ], [ 120.19147904700003, 23.000530182000034 ], [ 120.191241441000102, 23.000774956000043 ], [ 120.191192178000051, 23.000825729000042 ], [ 120.19089950800003, 23.001127279000059 ], [ 120.190696635000108, 23.001336499000047 ], [ 120.190477886000053, 23.001562086000035 ], [ 120.190622341000108, 23.001651118000041 ], [ 120.191045699000028, 23.001912046000029 ], [ 120.191726577000054, 23.002318433000028 ], [ 120.191841001000057, 23.002398435000032 ], [ 120.191938472000061, 23.002466585000036 ], [ 120.192040965000047, 23.002549404000035 ], [ 120.192275979000101, 23.002739306000024 ], [ 120.192631381000069, 23.002995153000029 ], [ 120.192641789000049, 23.003002647000073 ], [ 120.192874194000069, 23.003151326000022 ], [ 120.193027243000074, 23.003227999000046 ], [ 120.193049709000093, 23.00323925400005 ], [ 120.193353944000023, 23.003355835000036 ], [ 120.193500337000046, 23.003397820000032 ], [ 120.193704333000028, 23.003456340000071 ], [ 120.193752253000071, 23.00347008600005 ], [ 120.193843297000058, 23.003377104000037 ] ] ] } },
{ "type": "Feature", "properties": { "COUNTYNAME": "臺南市", "TOWNNAME": "中西區", "VILLNAME": "南廠里" }, "geometry": { "type": "Polygon", "coordinates": [ [ [ 120.195385789000056, 22.990529889000072 ], [ 120.196993709000026, 22.990191100000061 ], [ 120.197681579000118, 22.990196377000075 ], [ 120.197638273000052, 22.990039011000079 ], [ 120.19759827200005, 22.989866054000061 ], [ 120.197574653000061, 22.989763952000033 ], [ 120.197567351000089, 22.989732381000067 ], [ 120.197552199000029, 22.989666863000025 ], [ 120.197550508000063, 22.989659558000028 ], [ 120.197538810000083, 22.989560211000025 ], [ 120.197536680000098, 22.989542124000025 ], [ 120.197530626000116, 22.989490689000036 ], [ 120.197502824000026, 22.989254519000042 ], [ 120.197501145000047, 22.989240250000023 ], [ 120.19750272400006, 22.989201896000054 ], [ 120.197506964000013, 22.989098871000067 ], [ 120.197510129000079, 22.989021926000078 ], [ 120.197529709000037, 22.988546377000034 ], [ 120.197544487000073, 22.987496539000063 ], [ 120.197544546000017, 22.98746791700006 ], [ 120.197300873000017, 22.987466690000076 ], [ 120.196921354000096, 22.987481489000061 ], [ 120.196681983000076, 22.987476112000024 ], [ 120.196383793000109, 22.987487152000028 ], [ 120.195986158000096, 22.987510219000058 ], [ 120.195780992000095, 22.987525993000077 ], [ 120.195272138000064, 22.987565117000031 ], [ 120.194915004000109, 22.987613466000028 ], [ 120.194850335000069, 22.98763649600005 ], [ 120.194810892000078, 22.987650538000025 ], [ 120.194630117000088, 22.987666345000036 ], [ 120.194338660000085, 22.987675951000028 ], [ 120.193955815000095, 22.987769255000046 ], [ 120.192772959000081, 22.988025157000038 ], [ 120.1926709170001, 22.988044832000071 ], [ 120.192031672000098, 22.988168087000076 ], [ 120.190799219000041, 22.98840572000006 ], [ 120.190385632000016, 22.988482640000029 ], [ 120.190072566000026, 22.988550277000058 ], [ 120.190029565000032, 22.988596327000039 ], [ 120.189605903000029, 22.988700916000028 ], [ 120.189503179000098, 22.988707903000034 ], [ 120.189454747000013, 22.988658785000041 ], [ 120.189264588000015, 22.988694343000077 ], [ 120.189509527000041, 22.988930813000025 ], [ 120.19006197200008, 22.989427179000074 ], [ 120.190078114000016, 22.989441680000027 ], [ 120.190328889000057, 22.989734193000061 ], [ 120.190494032000061, 22.989999176000026 ], [ 120.190620175000049, 22.990236868000068 ], [ 120.190716810000026, 22.990490214000033 ], [ 120.190823080000087, 22.990763927000046 ], [ 120.191011364000019, 22.991392501000064 ], [ 120.195385789000056, 22.990529889000072 ] ] ] } },
{ "type": "Feature", "properties": { "COUNTYNAME": "臺南市", "TOWNNAME": "中西區", "VILLNAME": "淺草里" }, "geometry": { "type": "Polygon", "coordinates": [ [ [ 120.186611743000071, 22.997902232000058 ], [ 120.186641446000067, 22.997898504000034 ], [ 120.187208354000063, 22.997827356000073 ], [ 120.187326518000077, 22.997812927000041 ], [ 120.187354268000036, 22.997809111000038 ], [ 120.188230500000031, 22.997663417000069 ], [ 120.18843611200009, 22.99762922900004 ], [ 120.188563976000069, 22.997607965000043 ], [ 120.189292259000013, 22.997486861000027 ], [ 120.190124332000096, 22.99734612900005 ], [ 120.190225615000031, 22.99731487400004 ], [ 120.190930939000054, 22.997097250000024 ], [ 120.191572169000096, 22.996902524000063 ], [ 120.19287457300004, 22.996493043000044 ], [ 120.193436295000083, 22.996349921000046 ], [ 120.193942123000056, 22.996224506000033 ], [ 120.193947601000104, 22.996222659000068 ], [ 120.194187413, 22.996141784000031 ], [ 120.194431464000104, 22.99605636900003 ], [ 120.194919404000075, 22.995885600000065 ], [ 120.195316910000088, 22.995746471000075 ], [ 120.196573359000013, 22.995367995000038 ], [ 120.196603325000069, 22.995358967000072 ], [ 120.19753696600003, 22.995086733000051 ], [ 120.197872533, 22.994956392000063 ], [ 120.199187002000031, 22.994523335000054 ], [ 120.19920602000002, 22.99451706900004 ], [ 120.199032541000065, 22.994022165000047 ], [ 120.198970871000029, 22.993833632000076 ], [ 120.198955885000032, 22.993787819000033 ], [ 120.198784144000115, 22.993262741000024 ], [ 120.198636440000087, 22.99281114200005 ], [ 120.19859968500009, 22.992818450000073 ], [ 120.198587424000038, 22.99282088800004 ], [ 120.1973951760001, 22.993052913000042 ], [ 120.196033564000118, 22.993312001000049 ], [ 120.195333985000048, 22.993452318000038 ], [ 120.195318830000019, 22.993455356000027 ], [ 120.194669041000111, 22.993576076000068 ], [ 120.194236309000075, 22.993698879000078 ], [ 120.194258955, 22.993884654000055 ], [ 120.193585013000074, 22.994022249000068 ], [ 120.193295142000011, 22.994103779000056 ], [ 120.191681149000033, 22.994432893000067 ], [ 120.191720306000093, 22.994613143000038 ], [ 120.191745538000077, 22.994753240000023 ], [ 120.1919783620001, 22.995894490000069 ], [ 120.188321880000103, 22.996805886000061 ], [ 120.186553787000094, 22.997356678000074 ], [ 120.186542757000097, 22.997359510000024 ], [ 120.186497939000105, 22.997371015000056 ], [ 120.186554908000062, 22.997909364000066 ], [ 120.186611743000071, 22.997902232000058 ] ] ] } },
{ "type": "Feature", "properties": { "COUNTYNAME": "臺南市", "TOWNNAME": "中西區", "VILLNAME": "府前里" }, "geometry": { "type": "Polygon", "coordinates": [ [ [ 120.193295142000011, 22.994103779000056 ], [ 120.193585013000074, 22.994022249000068 ], [ 120.194258955, 22.993884654000055 ], [ 120.194236309000075, 22.993698879000078 ], [ 120.194669041000111, 22.993576076000068 ], [ 120.195318830000019, 22.993455356000027 ], [ 120.195333985000048, 22.993452318000038 ], [ 120.196033564000118, 22.993312001000049 ], [ 120.1973951760001, 22.993052913000042 ], [ 120.198587424000038, 22.99282088800004 ], [ 120.19859968500009, 22.992818450000073 ], [ 120.198636440000087, 22.99281114200005 ], [ 120.198617191000039, 22.992757465000068 ], [ 120.198460404000116, 22.992320273000075 ], [ 120.198264531000063, 22.991773232000071 ], [ 120.198185561000059, 22.991575230000024 ], [ 120.198053106000089, 22.991243121000025 ], [ 120.198043541000061, 22.991217062000032 ], [ 120.198001584000053, 22.991096620000064 ], [ 120.197988244000044, 22.991058335000048 ], [ 120.197920338000017, 22.990863442000034 ], [ 120.197807259000115, 22.990564867000046 ], [ 120.197787249000044, 22.990507212000068 ], [ 120.19769008600008, 22.990227292000043 ], [ 120.197681579000118, 22.990196377000075 ], [ 120.196993709000026, 22.990191100000061 ], [ 120.195385789000056, 22.990529889000072 ], [ 120.191011364000019, 22.991392501000064 ], [ 120.191020289000107, 22.991430432000072 ], [ 120.19109327000001, 22.991740587000038 ], [ 120.191132495000033, 22.991907282000057 ], [ 120.191681149000033, 22.994432893000067 ], [ 120.193295142000011, 22.994103779000056 ] ] ] } },
{ "type": "Feature", "properties": { "COUNTYNAME": "臺南市", "TOWNNAME": "中西區", "VILLNAME": "南門里" }, "geometry": { "type": "Polygon", "coordinates": [ [ [ 120.200868171000025, 22.98989232100007 ], [ 120.201294279000081, 22.989803035000023 ], [ 120.202256752000039, 22.989601358000073 ], [ 120.202242313000056, 22.989539611000055 ], [ 120.204606537000018, 22.989041222000026 ], [ 120.204557823000073, 22.988591113000041 ], [ 120.204553464000014, 22.988550833000033 ], [ 120.20448332300009, 22.98790264400003 ], [ 120.204418626, 22.987436030000026 ], [ 120.204384521000065, 22.987190046000023 ], [ 120.204366981000021, 22.987020437000069 ], [ 120.204358968000065, 22.986942941000052 ], [ 120.204355021000083, 22.986910386000034 ], [ 120.204345181, 22.98682922100005 ], [ 120.204320502000087, 22.986625650000065 ], [ 120.204278949000013, 22.986282849000077 ], [ 120.204237550000016, 22.985941316000037 ], [ 120.204232587000092, 22.985903923000023 ], [ 120.20418961200005, 22.985580072000062 ], [ 120.20418458000006, 22.985542081000062 ], [ 120.204146519, 22.985254853000072 ], [ 120.204141734000018, 22.985216986000069 ], [ 120.204125527000087, 22.985088690000055 ], [ 120.204087850000064, 22.984796471000038 ], [ 120.204014587000074, 22.984051110000053 ], [ 120.20401082300009, 22.984012110000037 ], [ 120.20397962100003, 22.98368894500004 ], [ 120.203924592000021, 22.983283650000033 ], [ 120.203861521000022, 22.982620281000038 ], [ 120.203818392000017, 22.982300008000038 ], [ 120.203793589000043, 22.982107275000033 ], [ 120.203789492000055, 22.982069840000065 ], [ 120.203759109000089, 22.981849699000065 ], [ 120.20370554100009, 22.981446722000044 ], [ 120.20369909100009, 22.981398200000058 ], [ 120.203696220000097, 22.981398225000078 ], [ 120.202714353000033, 22.981406411000023 ], [ 120.201734299, 22.98142054300007 ], [ 120.201434509000023, 22.981424863000029 ], [ 120.200941999000065, 22.98143230200003 ], [ 120.200933180000106, 22.981432435000045 ], [ 120.200138451000043, 22.981444440000075 ], [ 120.20013821100008, 22.981485313000064 ], [ 120.200096812000083, 22.982404575000032 ], [ 120.200085215000058, 22.982662102000063 ], [ 120.200089700000035, 22.98315789000003 ], [ 120.200096486, 22.983907262000059 ], [ 120.200109099000088, 22.984357465000073 ], [ 120.200130417000082, 22.985118441000054 ], [ 120.200147831000095, 22.985966776000055 ], [ 120.200155541000072, 22.986342614000023 ], [ 120.200192412000092, 22.987001348000035 ], [ 120.200193673000058, 22.987023866000072 ], [ 120.200250782000012, 22.988334167000062 ], [ 120.200278048000087, 22.988657322000051 ], [ 120.200285429000019, 22.988749349000045 ], [ 120.200292458000035, 22.988901394000038 ], [ 120.200322111000105, 22.98923456600005 ], [ 120.200337023000088, 22.989576652000039 ], [ 120.200354801000117, 22.989972490000071 ], [ 120.200355425000112, 22.989999766000039 ], [ 120.200868171000025, 22.98989232100007 ] ] ] } },
{ "type": "Feature", "properties": { "COUNTYNAME": "臺南市", "TOWNNAME": "中西區", "VILLNAME": "開山里" }, "geometry": { "type": "Polygon", "coordinates": [ [ [ 120.211044989000015, 22.989207357000055 ], [ 120.211185851000096, 22.989301583000042 ], [ 120.211302920000094, 22.989359642000068 ], [ 120.211462710000092, 22.989399589000072 ], [ 120.211480877000099, 22.989344153000047 ], [ 120.211558965000108, 22.989280750000034 ], [ 120.21161677300006, 22.989255519000039 ], [ 120.211672127000043, 22.989221 ], [ 120.211740196000051, 22.989156395000066 ], [ 120.211785618000022, 22.989105598000037 ], [ 120.211807901000043, 22.989046270000074 ], [ 120.211830224000096, 22.988979695000069 ], [ 120.211830400000053, 22.988949667000043 ], [ 120.211830733000056, 22.988892726000074 ], [ 120.211816753000107, 22.98883978200007 ], [ 120.211815404000049, 22.988834667000049 ], [ 120.211796888000094, 22.988785289000077 ], [ 120.211747123, 22.988721261000023 ], [ 120.211706692, 22.988668873000051 ], [ 120.211638089000076, 22.988610540000025 ], [ 120.21157560100005, 22.988578352000047 ], [ 120.211528699000041, 22.988560727000049 ], [ 120.211485066000023, 22.988519929000063 ], [ 120.211448242000074, 22.988386369000068 ], [ 120.211417911000012, 22.988213724000047 ], [ 120.211397295000097, 22.987987485000076 ], [ 120.211385627000027, 22.987839558000076 ], [ 120.211377226000081, 22.987668463000034 ], [ 120.211357584000098, 22.98727552500003 ], [ 120.211355196000113, 22.987147942000036 ], [ 120.211343832000011, 22.986947847000067 ], [ 120.21132430800003, 22.986534607000067 ], [ 120.211321683000051, 22.986447614000042 ], [ 120.211310148000052, 22.986276507000071 ], [ 120.211272112000074, 22.985813888000052 ], [ 120.211263338000094, 22.985706574000062 ], [ 120.211260830000015, 22.985599282000067 ], [ 120.21123814300006, 22.985191833000044 ], [ 120.211235516000102, 22.985104851000074 ], [ 120.211217986000065, 22.984887315000037 ], [ 120.211213344000043, 22.984797681000032 ], [ 120.211200019000103, 22.984815792000063 ], [ 120.210964157000035, 22.985136331000035 ], [ 120.210669327000119, 22.985446810000042 ], [ 120.209937894000063, 22.986250235000057 ], [ 120.209326841, 22.98695920800003 ], [ 120.209232088000022, 22.987073113000065 ], [ 120.209181824000098, 22.987133540000059 ], [ 120.208773076000057, 22.987639113000057 ], [ 120.208491678000087, 22.98798716400006 ], [ 120.208471269000029, 22.988012406000053 ], [ 120.208257141000104, 22.988277253000035 ], [ 120.207917787000042, 22.988696979000053 ], [ 120.207692887, 22.988989728000035 ], [ 120.207656045000022, 22.989037687000064 ], [ 120.207694714000013, 22.989166732000058 ], [ 120.208818081000118, 22.990776397000047 ], [ 120.211044989000015, 22.989207357000055 ] ] ] } },
{ "type": "Feature", "properties": { "COUNTYNAME": "臺南市", "TOWNNAME": "中西區", "VILLNAME": "大涼里" }, "geometry": { "type": "Polygon", "coordinates": [ [ [ 120.186542757000097, 22.997359510000024 ], [ 120.186553787000094, 22.997356678000074 ], [ 120.188321880000103, 22.996805886000061 ], [ 120.1919783620001, 22.995894490000069 ], [ 120.191745538000077, 22.994753240000023 ], [ 120.191720306000093, 22.994613143000038 ], [ 120.191681149000033, 22.994432893000067 ], [ 120.191132495000033, 22.991907282000057 ], [ 120.19109327000001, 22.991740587000038 ], [ 120.191020289000107, 22.991430432000072 ], [ 120.191011364000019, 22.991392501000064 ], [ 120.190823080000087, 22.990763927000046 ], [ 120.190716810000026, 22.990490214000033 ], [ 120.190620175000049, 22.990236868000068 ], [ 120.190494032000061, 22.989999176000026 ], [ 120.190328889000057, 22.989734193000061 ], [ 120.190078114000016, 22.989441680000027 ], [ 120.19006197200008, 22.989427179000074 ], [ 120.189509527000041, 22.988930813000025 ], [ 120.189264588000015, 22.988694343000077 ], [ 120.189454747000013, 22.988658785000041 ], [ 120.189229360000013, 22.988430209000057 ], [ 120.18898716800004, 22.988201692000075 ], [ 120.18884605900007, 22.988083041000039 ], [ 120.18875898500005, 22.987995643000033 ], [ 120.188674191000018, 22.987884534000045 ], [ 120.188536272000078, 22.987725714000078 ], [ 120.188404526000113, 22.987606463000077 ], [ 120.188221277000025, 22.987426407000044 ], [ 120.188023656000041, 22.987247523000065 ], [ 120.187791807000053, 22.987076373000036 ], [ 120.187581131000115, 22.986936950000029 ], [ 120.187352530000112, 22.986792558000047 ], [ 120.186839436000014, 22.986493487000075 ], [ 120.186596767000083, 22.986337172000049 ], [ 120.186553822000064, 22.986309508000033 ], [ 120.186613389000058, 22.986556306000068 ], [ 120.186690334000104, 22.986816972000042 ], [ 120.186765935000039, 22.98730157500006 ], [ 120.186831605000066, 22.988349038000024 ], [ 120.186869042000012, 22.988613729000065 ], [ 120.186936247000062, 22.989079158000038 ], [ 120.187007232000042, 22.989570776000051 ], [ 120.18704204800008, 22.99030939000005 ], [ 120.187045004000083, 22.990846871000031 ], [ 120.186956193000015, 22.991469858000073 ], [ 120.186921116, 22.991863109000064 ], [ 120.186841433000041, 22.993065352000031 ], [ 120.186800614000049, 22.993325403000028 ], [ 120.186766810000108, 22.993506818000071 ], [ 120.186646920000044, 22.993857260000027 ], [ 120.186427571000081, 22.994425100000058 ], [ 120.186340323000081, 22.994787820000056 ], [ 120.18631283700006, 22.995005578000075 ], [ 120.186317814000063, 22.995265863000043 ], [ 120.186334945000112, 22.995669901000042 ], [ 120.186390479000011, 22.996227034000071 ], [ 120.186482615000045, 22.997226197000032 ], [ 120.186497939000105, 22.997371015000056 ], [ 120.186542757000097, 22.997359510000024 ] ] ] } },
{ "type": "Feature", "properties": { "COUNTYNAME": "臺南市", "TOWNNAME": "中西區", "VILLNAME": "藥王里" }, "geometry": { "type": "Polygon", "coordinates": [ [ [ 120.192414531000054, 23.000130893000062 ], [ 120.193002788000058, 22.999919870000042 ], [ 120.193190365000078, 22.999854043000028 ], [ 120.193884829000012, 22.999610335000057 ], [ 120.195037679000052, 22.999193988000059 ], [ 120.195127334000063, 22.999161610000044 ], [ 120.195315991000029, 22.999098568000022 ], [ 120.195760469000106, 22.998949184000026 ], [ 120.196404714000096, 22.998732653000047 ], [ 120.196500218000097, 22.998700552000059 ], [ 120.197765977000017, 22.998221347000026 ], [ 120.197779997000112, 22.998216040000045 ], [ 120.197775523000018, 22.998206112000048 ], [ 120.197723432000089, 22.998090495000042 ], [ 120.197649664000096, 22.997926739000036 ], [ 120.197554836000108, 22.997716254000068 ], [ 120.197339281000041, 22.99723780100004 ], [ 120.197209180000073, 22.99689408200004 ], [ 120.197060364000095, 22.99655032000004 ], [ 120.196953177000069, 22.996276747000024 ], [ 120.19690252700002, 22.996147473000065 ], [ 120.196603325000069, 22.995358967000072 ], [ 120.196573359000013, 22.995367995000038 ], [ 120.195316910000088, 22.995746471000075 ], [ 120.194919404000075, 22.995885600000065 ], [ 120.194431464000104, 22.99605636900003 ], [ 120.194187413, 22.996141784000031 ], [ 120.193947601000104, 22.996222659000068 ], [ 120.193942123000056, 22.996224506000033 ], [ 120.193436295000083, 22.996349921000046 ], [ 120.19287457300004, 22.996493043000044 ], [ 120.191572169000096, 22.996902524000063 ], [ 120.190930939000054, 22.997097250000024 ], [ 120.190225615000031, 22.99731487400004 ], [ 120.190124332000096, 22.99734612900005 ], [ 120.189292259000013, 22.997486861000027 ], [ 120.189359662000015, 22.99769348600006 ], [ 120.189461715000107, 22.997897588000058 ], [ 120.189613034000104, 22.998129841000036 ], [ 120.189764351, 22.998348018000058 ], [ 120.189968451000027, 22.998576754000055 ], [ 120.190355534000105, 22.998886425000023 ], [ 120.190742617000069, 22.999210173000051 ], [ 120.191849660000116, 23.000134745000025 ], [ 120.191907947000118, 23.000182205000044 ], [ 120.192013737000025, 23.000270882000052 ], [ 120.192414531000054, 23.000130893000062 ] ] ] } },
{ "type": "Feature", "properties": { "COUNTYNAME": "臺南市", "TOWNNAME": "中西區", "VILLNAME": "光賢里" }, "geometry": { "type": "Polygon", "coordinates": [ [ [ 120.188546484000085, 23.007200607000073 ], [ 120.189218511000036, 23.006927302000065 ], [ 120.1899112320001, 23.006631609000067 ], [ 120.190077833000032, 23.006541544000072 ], [ 120.190128875000028, 23.006507320000026 ], [ 120.190397613000073, 23.006339398000023 ], [ 120.190448651000111, 23.006305172000054 ], [ 120.190747946000101, 23.006127995000043 ], [ 120.190902527000048, 23.006064517000027 ], [ 120.191154055000084, 23.005940401000032 ], [ 120.191222037000102, 23.005906262000053 ], [ 120.191487008000081, 23.005801017000067 ], [ 120.19153463900011, 23.005769906000069 ], [ 120.191701222, 23.005682973000035 ], [ 120.191820207000092, 23.005620877000069 ], [ 120.191857712000115, 23.005583449000028 ], [ 120.191920733000075, 23.005528909000077 ], [ 120.192145076000088, 23.005417185000056 ], [ 120.192321843000059, 23.005327171000033 ], [ 120.192393158000073, 23.005302442000072 ], [ 120.192478105000077, 23.005265254000051 ], [ 120.192532400000118, 23.005252999000049 ], [ 120.192590010000117, 23.005253289000052 ], [ 120.192817178000041, 23.005235630000072 ], [ 120.193010360000017, 23.005233463000025 ], [ 120.193173137000031, 23.00521548200004 ], [ 120.193440914, 23.005207416000076 ], [ 120.19350225300002, 23.005205028000034 ], [ 120.193486799000084, 23.005183337000062 ], [ 120.193393962000073, 23.005053049000026 ], [ 120.193116774000032, 23.004750143000024 ], [ 120.19296186300005, 23.004580855000029 ], [ 120.192813649000072, 23.004440048000049 ], [ 120.192538394000053, 23.004169139000055 ], [ 120.192507269000089, 23.004138506000061 ], [ 120.192287884000052, 23.003920389000029 ], [ 120.192176976000042, 23.003809797000031 ], [ 120.192001566000044, 23.003634874000056 ], [ 120.19171902700009, 23.003381428000068 ], [ 120.191478977000088, 23.003200766000077 ], [ 120.19144153000002, 23.003172582000047 ], [ 120.191375313000094, 23.003122747000077 ], [ 120.191178356000023, 23.002946779000069 ], [ 120.191115554000021, 23.002914416000067 ], [ 120.190935384000113, 23.002821509000057 ], [ 120.190692848000026, 23.002701845000047 ], [ 120.190669206000052, 23.002690182000038 ], [ 120.19061403, 23.002680577000035 ], [ 120.190556287000049, 23.002670526000031 ], [ 120.190457273000106, 23.002672082000061 ], [ 120.190391534000014, 23.002647724000042 ], [ 120.190323712, 23.002611369000078 ], [ 120.189900007, 23.002364212000032 ], [ 120.189610993000088, 23.002195903000029 ], [ 120.189475597000069, 23.002117049000049 ], [ 120.189061931000083, 23.001876869000057 ], [ 120.188794061000067, 23.001731033000056 ], [ 120.188691249000044, 23.001675060000025 ], [ 120.18867336400001, 23.001655984000024 ], [ 120.188634692000051, 23.00161262000006 ], [ 120.188599338000017, 23.001572982000027 ], [ 120.188492407000012, 23.001453085000037 ], [ 120.18832382100004, 23.001227205000077 ], [ 120.188218816000017, 23.001087612000049 ], [ 120.188130590000014, 23.000970160000065 ], [ 120.18803807300003, 23.000848715000075 ], [ 120.187989626000103, 23.000762425000062 ], [ 120.187955190000025, 23.000681245000067 ], [ 120.187940441000023, 23.000618169000063 ], [ 120.187939661000087, 23.000605183000062 ], [ 120.18793585100002, 23.000542182000061 ], [ 120.187937445000102, 23.000457138000058 ], [ 120.187946646000114, 23.000423248000061 ], [ 120.187965941000016, 23.000353416000053 ], [ 120.186951375000035, 23.000412620000077 ], [ 120.186955336000096, 23.000459113000034 ], [ 120.186969026000043, 23.000622382000074 ], [ 120.187004082000044, 23.001040429000057 ], [ 120.187017231000027, 23.001188459000048 ], [ 120.187031508000018, 23.001632613000027 ], [ 120.187028190000092, 23.001827540000022 ], [ 120.187022221, 23.002165569000056 ], [ 120.187017776000062, 23.002427548000071 ], [ 120.186995002000117, 23.00274640400005 ], [ 120.186996389000115, 23.002979423000056 ], [ 120.186942626000018, 23.003423231000056 ], [ 120.186916498000073, 23.003639104000058 ], [ 120.186832615000071, 23.004244669000059 ], [ 120.186715666000055, 23.004779050000025 ], [ 120.186648671000057, 23.005081434000033 ], [ 120.186563616000058, 23.005465352000044 ], [ 120.186523606000037, 23.005666090000034 ], [ 120.186440739000091, 23.006081866000045 ], [ 120.186421060000043, 23.006180598000071 ], [ 120.186272376000034, 23.006851776000076 ], [ 120.186270161000039, 23.006862104000049 ], [ 120.186503614000117, 23.006954495000059 ], [ 120.187863229000072, 23.007499469000038 ], [ 120.188546484000085, 23.007200607000073 ] ] ] } }
]
}
