{"type": "FeatureCollection", "name": "zhongxi_li_simple", "features": [{"type": "Feature", "properties": {"VILLNAME": "法華里", "village": "法華里", "bess_capacity_kwh": 260.0, "pv_capacity_kwh": 411.8932276745405}, "geometry": {"type": "Polygon", "coordinates": [[[120.20893908800008, 22.98470939200007], [120.21009309800002, 22.984035007000045], [120.21054349600001, 22.984463178000055], [120.21120776400005, 22.98468996400004], [120.2112171550001, 22.982876691000058], [120.21201006000001, 22.98125486500004], [120.20549916800007, 22.981364928000062], [120.20550564400003, 22.982619537000062], [120.20846548200007, 22.98256724600003], [120.20893908800008, 22.98470939200007]]]}}, {"type": "Feature", "properties": {"VILLNAME": "赤嵌里", "village": "赤嵌里", "bess_capacity_kwh": 790.0, "pv_capacity_kwh": 695.5327336372344}, "geometry": {"type": "Polygon", "coordinates": [[[120.20125349700004, 22.99966240300006], [120.2051871650001, 22.998309908000067], [120.21093539700007, 22.997295587000053], [120.21168710400002, 22.99763757000005], [120.21228226300002, 22.997473214000024], [120.21218401600004, 22.997096381000063], [120.20506988800003, 22.992615537000063], [120.20410607000008, 22.99309189300004], [120.20303346700007, 22.99336650300006], [120.20407273500007, 22.996319889000063], [120.20245719200011, 22.996911658000045], [120.20175993100008, 22.995424076000063], [120.19962316400006, 22.996187838000026], [120.2002673180001, 22.998016671000073], [120.20125349700004, 22.99966240300006]]]}}, {"type": "Feature", "properties": {"VILLNAME": "永華里", "village": "永華里", "bess_capacity_kwh": 390.0, "pv_capacity_kwh": 227.6471309059311}, "geometry": {"type": "Polygon", "coordinates": [[[120.2030633490001, 22.993358854000064], [120.20410607000008, 22.99309189300004], [120.20549168500008, 22.992478805000076], [120.20766256200011, 22.992152911000062], [120.20881808100012, 22.990776397000047], [120.20756309900003, 22.989005381000027], [120.20460653700002, 22.989041222000026], [120.20224231300006, 22.989539611000055], [120.2030633490001, 22.993358854000064]]]}}, {"type": "Feature", "properties": {"VILLNAME": "郡王里", "village": "郡王里", "bess_capacity_kwh": 410.0, "pv_capacity_kwh": 427.7907247038766}, "geometry": {"type": "Polygon", "coordinates": [[[120.20460653700002, 22.989041222000026], [120.20765604500002, 22.989037687000064], [120.21120776400005, 22.98468996400004], [120.21054349600001, 22.984463178000055], [120.21009309800002, 22.984035007000045], [120.20893908800008, 22.98470939200007], [120.20846548200007, 22.98256724600003], [120.20550564400003, 22.982619537000062], [120.20549916800007, 22.981364928000062], [120.20369909100009, 22.981398200000058], [120.20460653700002, 22.989041222000026]]]}}, {"type": "Feature", "properties": {"VILLNAME": "西湖里", "village": "西湖里", "bess_capacity_kwh": 910.0, "pv_capacity_kwh": 4341.154101893177}, "geometry": {"type": "Polygon", "coordinates": [[[120.18695137500004, 23.000412620000077], [120.18674697000006, 22.998922875000062], [120.1847485510001, 22.999148914000045], [120.18012761200009, 22.999104818000035], [120.17994031700005, 23.003937703000076], [120.18005631500012, 23.00543891800004], [120.18277203800005, 23.005308925000065], [120.18627016100004, 23.00686210400005], [120.18699638900011, 23.002979423000056], [120.18695137500004, 23.000412620000077]]]}}, {"type": "Feature", "properties": {"VILLNAME": "西賢里", "village": "西賢里", "bess_capacity_kwh": 780.0, "pv_capacity_kwh": 1721.273359103437}, "geometry": {"type": "Polygon", "coordinates": [[[120.17317628600006, 23.007539201000043], [120.17412381500003, 23.006056064000063], [120.17578457900004, 23.005793819000075], [120.18005631500012, 23.00543891800004], [120.17994031700005, 23.003937703000076], [120.18012761200009, 22.999104818000035], [120.17488630500009, 22.99931222500004], [120.16774973000008, 23.001825834000044], [120.16704984800003, 23.001930509000033], [120.16529699500006, 23.002597125000023], [120.16424967600005, 23.003217403000065], [120.16305652800008, 23.00345594600003], [120.15945872300006, 23.005652337000072], [120.16166998200003, 23.005699605000075], [120.16323317000001, 23.00473966000004], [120.16635531200006, 23.004757247000043], [120.16746258100011, 23.005078234000052], [120.17317628600006, 23.007539201000043]]]}}, {"type": "Feature", "properties": {"VILLNAME": "五條港里", "village": "五條港里", "bess_capacity_kwh": 510.0, "pv_capacity_kwh": 299.9730410800255}, "geometry": {"type": "Polygon", "coordinates": [[[120.19874782900001, 23.000551521000034], [120.20124877, 22.999664146000043], [120.20025346800003, 22.997983571000077], [120.19920602000002, 22.99451706900004], [120.19660332500007, 22.995358967000072], [120.19874782900001, 23.000551521000034]]]}}, {"type": "Feature", "properties": {"VILLNAME": "南美里", "village": "南美里", "bess_capacity_kwh": 590.0, "pv_capacity_kwh": 391.3753518997813}, "geometry": {"type": "Polygon", "coordinates": [[[120.20245719200011, 22.996911658000045], [120.20407273500007, 22.996319889000063], [120.20303346700007, 22.99336650300006], [120.20225675200004, 22.989601358000073], [120.19818023800008, 22.990378733000057], [120.19780725900011, 22.990564867000046], [120.19920602000002, 22.99451706900004], [120.19962316400006, 22.996187838000026], [120.20175993100008, 22.995424076000063], [120.20245719200011, 22.996911658000045]]]}}, {"type": "Feature", "properties": {"VILLNAME": "城隍里", "village": "城隍里", "bess_capacity_kwh": 640.0, "pv_capacity_kwh": 804.7163568148262}, "geometry": {"type": "Polygon", "coordinates": [[[120.21218401600004, 22.997096381000063], [120.21180464800011, 22.995161094000025], [120.21146271000009, 22.989399589000072], [120.21104498900002, 22.989207357000055], [120.20881808100012, 22.990776397000047], [120.20766256200011, 22.992152911000062], [120.20506988800003, 22.992615537000063], [120.21218401600004, 22.997096381000063]]]}}, {"type": "Feature", "properties": {"VILLNAME": "西和里", "village": "西和里", "bess_capacity_kwh": 550.0, "pv_capacity_kwh": 1043.285525347509}, "geometry": {"type": "Polygon", "coordinates": [[[120.19354769100005, 23.005203255000026], [120.19375225300007, 23.00347008600005], [120.19287419400007, 23.003151326000022], [120.19047788600005, 23.001562086000035], [120.19184966000012, 23.000134745000025], [120.18996845100003, 22.998576754000055], [120.18929225900001, 22.997486861000027], [120.18655490800006, 22.997909364000066], [120.18695137500004, 23.000412620000077], [120.18796594100002, 23.000353416000053], [120.1879896260001, 23.00076242500006], [120.18869124900004, 23.001675060000025], [120.19117835600002, 23.00294677900007], [120.19354769100005, 23.005203255000026]]]}}, {"type": "Feature", "properties": {"VILLNAME": "小西門里", "village": "小西門里", "bess_capacity_kwh": 540.0, "pv_capacity_kwh": 2194.503897705778}, "geometry": {"type": "Polygon", "coordinates": [[[120.19784947700009, 22.990543797000043], [120.20035542500011, 22.98999976600004], [120.20015554100007, 22.986342614000023], [120.20013845100004, 22.981444440000075], [120.1976417410001, 22.98148712400007], [120.19750114500005, 22.989240250000023], [120.19784947700009, 22.990543797000043]]]}}, {"type": "Feature", "properties": {"VILLNAME": "兌悅里", "village": "兌悅里", "bess_capacity_kwh": 630.0, "pv_capacity_kwh": 299.3586531408926}, "geometry": {"type": "Polygon", "coordinates": [[[120.19375225300007, 23.00347008600005], [120.19554798800004, 23.00166151800005], [120.19874782900001, 23.000551521000034], [120.19777999700011, 22.998216040000045], [120.19201373700002, 23.000270882000052], [120.19184966000012, 23.000134745000025], [120.19047788600005, 23.001562086000035], [120.19287419400007, 23.003151326000022], [120.19375225300007, 23.00347008600005]]]}}, {"type": "Feature", "properties": {"VILLNAME": "南廠里", "village": "南廠里", "bess_capacity_kwh": 740.0, "pv_capacity_kwh": 532.5543747089331}, "geometry": {"type": "Polygon", "coordinates": [[[120.19101136400002, 22.991392501000064], [120.19699370900003, 22.99019110000006], [120.19768157900012, 22.990196377000075], [120.19750114500005, 22.989240250000023], [120.19754454600002, 22.98746791700006], [120.19433866000008, 22.98767595100003], [120.18926458800001, 22.988694343000077], [120.19032888900006, 22.98973419300006], [120.19101136400002, 22.991392501000064]]]}}, {"type": "Feature", "properties": {"VILLNAME": "淺草里", "village": "淺草里", "bess_capacity_kwh": 670.0, "pv_capacity_kwh": 701.8488329640466}, "geometry": {"type": "Polygon", "coordinates": [[[120.18661174300007, 22.997902232000058], [120.1901243320001, 22.99734612900005], [120.19920602000002, 22.99451706900004], [120.19863644000009, 22.99281114200005], [120.19466904100011, 22.993576076000068], [120.19423630900008, 22.99369887900008], [120.194258955, 22.993884654000055], [120.19168114900003, 22.994432893000067], [120.1919783620001, 22.99589449000007], [120.1864979390001, 22.997371015000056], [120.18661174300007, 22.997902232000058]]]}}, {"type": "Feature", "properties": {"VILLNAME": "府前里", "village": "府前里", "bess_capacity_kwh": 540.0, "pv_capacity_kwh": 417.9577648063056}, "geometry": {"type": "Polygon", "coordinates": [[[120.19168114900003, 22.994432893000067], [120.194258955, 22.993884654000055], [120.19423630900008, 22.99369887900008], [120.19466904100011, 22.993576076000068], [120.19863644000009, 22.99281114200005], [120.19768157900012, 22.990196377000075], [120.19699370900003, 22.99019110000006], [120.19101136400002, 22.991392501000064], [120.19168114900003, 22.994432893000067]]]}}, {"type": "Feature", "properties": {"VILLNAME": "南門里", "village": "南門里", "bess_capacity_kwh": 430.0, "pv_capacity_kwh": 499.8192982563486}, "geometry": {"type": "Polygon", "coordinates": [[[120.20035542500011, 22.98999976600004], [120.20460653700002, 22.989041222000026], [120.20369909100009, 22.981398200000058], [120.20013845100004, 22.981444440000075], [120.20015554100007, 22.986342614000023], [120.20035542500011, 22.98999976600004]]]}}, {"type": "Feature", "properties": {"VILLNAME": "開山里", "village": "開山里", "bess_capacity_kwh": 630.0, "pv_capacity_kwh": 157.1692066982437}, "geometry": {"type": "Polygon", "coordinates": [[[120.21104498900002, 22.989207357000055], [120.21146271000009, 22.989399589000072], [120.2118302240001, 22.98897969500007], [120.21141791100001, 22.988213724000047], [120.21121334400004, 22.984797681000032], [120.20765604500002, 22.989037687000064], [120.20881808100012, 22.990776397000047], [120.21104498900002, 22.989207357000055]]]}}, {"type": "Feature", "properties": {"VILLNAME": "大涼里", "village": "大涼里", "bess_capacity_kwh": 490.0, "pv_capacity_kwh": 1418.819591035801}, "geometry": {"type": "Polygon", "coordinates": [[[120.1865427570001, 22.997359510000024], [120.1919783620001, 22.99589449000007], [120.19101136400002, 22.991392501000064], [120.19049403200006, 22.989999176000026], [120.18926458800001, 22.988694343000077], [120.18945474700001, 22.98865878500004], [120.18822127700003, 22.987426407000044], [120.18655382200006, 22.986309508000033], [120.18676593500004, 22.98730157500006], [120.18704500400008, 22.99084687100003], [120.18680061400005, 22.99332540300003], [120.18631283700006, 22.995005578000075], [120.1865427570001, 22.997359510000024]]]}}, {"type": "Feature", "properties": {"VILLNAME": "藥王里", "village": "藥王里", "bess_capacity_kwh": 690.0, "pv_capacity_kwh": 460.4543266588026}, "geometry": {"type": "Polygon", "coordinates": [[[120.19201373700002, 23.000270882000052], [120.19777999700011, 22.998216040000045], [120.19660332500007, 22.995358967000072], [120.18929225900001, 22.997486861000027], [120.18996845100003, 22.998576754000055], [120.19201373700002, 23.000270882000052]]]}}, {"type": "Feature", "properties": {"VILLNAME": "光賢里", "village": "光賢里", "bess_capacity_kwh": 560.0, "pv_capacity_kwh": 1809.202763418745}, "geometry": {"type": "Polygon", "coordinates": [[[120.18786322900007, 23.007499469000038], [120.19232184300006, 23.005327171000033], [120.19350225300002, 23.005205028000034], [120.19117835600002, 23.00294677900007], [120.18869124900004, 23.001675060000025], [120.1879896260001, 23.00076242500006], [120.18796594100002, 23.000353416000053], [120.18695137500004, 23.000412620000077], [120.18699638900011, 23.002979423000056], [120.18627016100004, 23.00686210400005], [120.18786322900007, 23.007499469000038]]]}}]}