{
"type": "FeatureCollection",
"name": "zhongxi_li_simple",
"features": [
{ "type": "Feature", "properties": { "VILLNAME": "法華里" }, "geometry": { "type": "Polygon", "coordinates": [ [ [ 120.208939088000079, 22.98470939200007 ], [ 120.210093098000016, 22.984035007000045 ], [ 120.210543496000014, 22.984463178000055 ], [ 120.211207764000051, 22.98468996400004 ], [ 120.211217155000099, 22.982876691000058 ], [ 120.212010060000011, 22.981254865000039 ], [ 120.205499168000074, 22.981364928000062 ], [ 120.205505644000027, 22.982619537000062 ], [ 120.208465482000065, 22.982567246000031 ], [ 120.208939088000079, 22.98470939200007 ] ] ] } },
{ "type": "Feature", "properties": { "VILLNAME": "赤嵌里" }, "geometry": { "type": "Polygon", "coordinates": [ [ [ 120.201253497000039, 22.999662403000059 ], [ 120.205187165000098, 22.998309908000067 ], [ 120.210935397000071, 22.997295587000053 ], [ 120.211687104000021, 22.997637570000052 ], [ 120.21228226300002, 22.997473214000024 ], [ 120.212184016000037, 22.997096381000063 ], [ 120.205069888000025, 22.992615537000063 ], [ 120.20410607000008, 22.993091893000042 ], [ 120.203033467000068, 22.993366503000061 ], [ 120.204072735000068, 22.996319889000063 ], [ 120.202457192000111, 22.996911658000045 ], [ 120.201759931000083, 22.995424076000063 ], [ 120.199623164000059, 22.996187838000026 ], [ 120.200267318000101, 22.998016671000073 ], [ 120.201253497000039, 22.999662403000059 ] ] ] } },
{ "type": "Feature", "properties": { "VILLNAME": "永華里" }, "geometry": { "type": "Polygon", "coordinates": [ [ [ 120.203063349000104, 22.993358854000064 ], [ 120.20410607000008, 22.993091893000042 ], [ 120.205491685000084, 22.992478805000076 ], [ 120.20766256200011, 22.992152911000062 ], [ 120.208818081000118, 22.990776397000047 ], [ 120.207563099000026, 22.989005381000027 ], [ 120.204606537000018, 22.989041222000026 ], [ 120.202242313000056, 22.989539611000055 ], [ 120.203063349000104, 22.993358854000064 ] ] ] } },
{ "type": "Feature", "properties": { "VILLNAME": "郡王里" }, "geometry": { "type": "Polygon", "coordinates": [ [ [ 120.204606537000018, 22.989041222000026 ], [ 120.207656045000022, 22.989037687000064 ], [ 120.211207764000051, 22.98468996400004 ], [ 120.210543496000014, 22.984463178000055 ], [ 120.210093098000016, 22.984035007000045 ], [ 120.208939088000079, 22.98470939200007 ], [ 120.208465482000065, 22.982567246000031 ], [ 120.205505644000027, 22.982619537000062 ], [ 120.205499168000074, 22.981364928000062 ], [ 120.20369909100009, 22.981398200000058 ], [ 120.204606537000018, 22.989041222000026 ] ] ] } },
{ "type": "Feature", "properties": { "VILLNAME": "西湖里" }, "geometry": { "type": "Polygon", "coordinates": [ [ [ 120.186951375000035, 23.000412620000077 ], [ 120.186746970000058, 22.998922875000062 ], [ 120.184748551000098, 22.999148914000045 ], [ 120.180127612000092, 22.999104818000035 ], [ 120.179940317000046, 23.003937703000076 ], [ 120.180056315000115, 23.005438918000038 ], [ 120.182772038000053, 23.005308925000065 ], [ 120.186270161000039, 23.006862104000049 ], [ 120.186996389000115, 23.002979423000056 ], [ 120.186951375000035, 23.000412620000077 ] ] ] } },
{ "type": "Feature", "properties": { "VILLNAME": "西賢里" }, "geometry": { "type": "Polygon", "coordinates": [ [ [ 120.173176286000057, 23.007539201000043 ], [ 120.17412381500003, 23.006056064000063 ], [ 120.175784579000037, 23.005793819000075 ], [ 120.180056315000115, 23.005438918000038 ], [ 120.179940317000046, 23.003937703000076 ], [ 120.180127612000092, 22.999104818000035 ], [ 120.174886305000086, 22.99931222500004 ], [ 120.167749730000082, 23.001825834000044 ], [ 120.167049848000033, 23.001930509000033 ], [ 120.165296995000062, 23.002597125000023 ], [ 120.164249676000054, 23.003217403000065 ], [ 120.163056528000084, 23.003455946000031 ], [ 120.159458723000057, 23.005652337000072 ], [ 120.161669982000035, 23.005699605000075 ], [ 120.163233170000012, 23.004739660000041 ], [ 120.166355312000064, 23.004757247000043 ], [ 120.167462581000109, 23.005078234000052 ], [ 120.173176286000057, 23.007539201000043 ] ] ] } },
{ "type": "Feature", "properties": { "VILLNAME": "五條港里" }, "geometry": { "type": "Polygon", "coordinates": [ [ [ 120.198747829000013, 23.000551521000034 ], [ 120.20124877, 22.999664146000043 ], [ 120.200253468000028, 22.997983571000077 ], [ 120.19920602000002, 22.99451706900004 ], [ 120.196603325000069, 22.995358967000072 ], [ 120.198747829000013, 23.000551521000034 ] ] ] } },
{ "type": "Feature", "properties": { "VILLNAME": "南美里" }, "geometry": { "type": "Polygon", "coordinates": [ [ [ 120.202457192000111, 22.996911658000045 ], [ 120.204072735000068, 22.996319889000063 ], [ 120.203033467000068, 22.993366503000061 ], [ 120.202256752000039, 22.989601358000073 ], [ 120.198180238000077, 22.990378733000057 ], [ 120.197807259000115, 22.990564867000046 ], [ 120.19920602000002, 22.99451706900004 ], [ 120.199623164000059, 22.996187838000026 ], [ 120.201759931000083, 22.995424076000063 ], [ 120.202457192000111, 22.996911658000045 ] ] ] } },
{ "type": "Feature", "properties": { "VILLNAME": "城隍里" }, "geometry": { "type": "Polygon", "coordinates": [ [ [ 120.212184016000037, 22.997096381000063 ], [ 120.211804648000111, 22.995161094000025 ], [ 120.211462710000092, 22.989399589000072 ], [ 120.211044989000015, 22.989207357000055 ], [ 120.208818081000118, 22.990776397000047 ], [ 120.20766256200011, 22.992152911000062 ], [ 120.205069888000025, 22.992615537000063 ], [ 120.212184016000037, 22.997096381000063 ] ] ] } },
{ "type": "Feature", "properties": { "VILLNAME": "西和里" }, "geometry": { "type": "Polygon", "coordinates": [ [ [ 120.193547691000049, 23.005203255000026 ], [ 120.193752253000071, 23.00347008600005 ], [ 120.192874194000069, 23.003151326000022 ], [ 120.190477886000053, 23.001562086000035 ], [ 120.191849660000116, 23.000134745000025 ], [ 120.189968451000027, 22.998576754000055 ], [ 120.189292259000013, 22.997486861000027 ], [ 120.186554908000062, 22.997909364000066 ], [ 120.186951375000035, 23.000412620000077 ], [ 120.187965941000016, 23.000353416000053 ], [ 120.187989626000103, 23.000762425000062 ], [ 120.188691249000044, 23.001675060000025 ], [ 120.191178356000023, 23.002946779000069 ], [ 120.193547691000049, 23.005203255000026 ] ] ] } },
{ "type": "Feature", "properties": { "VILLNAME": "小西門里" }, "geometry": { "type": "Polygon", "coordinates": [ [ [ 120.197849477000091, 22.990543797000043 ], [ 120.200355425000112, 22.989999766000039 ], [ 120.200155541000072, 22.986342614000023 ], [ 120.200138451000043, 22.981444440000075 ], [ 120.197641741000098, 22.981487124000068 ], [ 120.197501145000047, 22.989240250000023 ], [ 120.197849477000091, 22.990543797000043 ] ] ] } },
{ "type": "Feature", "properties": { "VILLNAME": "兌悅里" }, "geometry": { "type": "Polygon", "coordinates": [ [ [ 120.193752253000071, 23.00347008600005 ], [ 120.195547988000044, 23.001661518000049 ], [ 120.198747829000013, 23.000551521000034 ], [ 120.197779997000112, 22.998216040000045 ], [ 120.192013737000025, 23.000270882000052 ], [ 120.191849660000116, 23.000134745000025 ], [ 120.190477886000053, 23.001562086000035 ], [ 120.192874194000069, 23.003151326000022 ], [ 120.193752253000071, 23.00347008600005 ] ] ] } },
{ "type": "Feature", "properties": { "VILLNAME": "南廠里" }, "geometry": { "type": "Polygon", "coordinates": [ [ [ 120.191011364000019, 22.991392501000064 ], [ 120.196993709000026, 22.990191100000061 ], [ 120.197681579000118, 22.990196377000075 ], [ 120.197501145000047, 22.989240250000023 ], [ 120.197544546000017, 22.98746791700006 ], [ 120.194338660000085, 22.987675951000028 ], [ 120.189264588000015, 22.988694343000077 ], [ 120.190328889000057, 22.989734193000061 ], [ 120.191011364000019, 22.991392501000064 ] ] ] } },
{ "type": "Feature", "properties": { "VILLNAME": "淺草里" }, "geometry": { "type": "Polygon", "coordinates": [ [ [ 120.186611743000071, 22.997902232000058 ], [ 120.190124332000096, 22.99734612900005 ], [ 120.19920602000002, 22.99451706900004 ], [ 120.198636440000087, 22.99281114200005 ], [ 120.194669041000111, 22.993576076000068 ], [ 120.194236309000075, 22.993698879000078 ], [ 120.194258955, 22.993884654000055 ], [ 120.191681149000033, 22.994432893000067 ], [ 120.1919783620001, 22.995894490000069 ], [ 120.186497939000105, 22.997371015000056 ], [ 120.186611743000071, 22.997902232000058 ] ] ] } },
{ "type": "Feature", "properties": { "VILLNAME": "府前里" }, "geometry": { "type": "Polygon", "coordinates": [ [ [ 120.191681149000033, 22.994432893000067 ], [ 120.194258955, 22.993884654000055 ], [ 120.194236309000075, 22.993698879000078 ], [ 120.194669041000111, 22.993576076000068 ], [ 120.198636440000087, 22.99281114200005 ], [ 120.197681579000118, 22.990196377000075 ], [ 120.196993709000026, 22.990191100000061 ], [ 120.191011364000019, 22.991392501000064 ], [ 120.191681149000033, 22.994432893000067 ] ] ] } },
{ "type": "Feature", "properties": { "VILLNAME": "南門里" }, "geometry": { "type": "Polygon", "coordinates": [ [ [ 120.200355425000112, 22.989999766000039 ], [ 120.204606537000018, 22.989041222000026 ], [ 120.20369909100009, 22.981398200000058 ], [ 120.200138451000043, 22.981444440000075 ], [ 120.200155541000072, 22.986342614000023 ], [ 120.200355425000112, 22.989999766000039 ] ] ] } },
{ "type": "Feature", "properties": { "VILLNAME": "開山里" }, "geometry": { "type": "Polygon", "coordinates": [ [ [ 120.211044989000015, 22.989207357000055 ], [ 120.211462710000092, 22.989399589000072 ], [ 120.211830224000096, 22.988979695000069 ], [ 120.211417911000012, 22.988213724000047 ], [ 120.211213344000043, 22.984797681000032 ], [ 120.207656045000022, 22.989037687000064 ], [ 120.208818081000118, 22.990776397000047 ], [ 120.211044989000015, 22.989207357000055 ] ] ] } },
{ "type": "Feature", "properties": { "VILLNAME": "大涼里" }, "geometry": { "type": "Polygon", "coordinates": [ [ [ 120.186542757000097, 22.997359510000024 ], [ 120.1919783620001, 22.995894490000069 ], [ 120.191011364000019, 22.991392501000064 ], [ 120.190494032000061, 22.989999176000026 ], [ 120.189264588000015, 22.988694343000077 ], [ 120.189454747000013, 22.988658785000041 ], [ 120.188221277000025, 22.987426407000044 ], [ 120.186553822000064, 22.986309508000033 ], [ 120.186765935000039, 22.98730157500006 ], [ 120.187045004000083, 22.990846871000031 ], [ 120.186800614000049, 22.993325403000028 ], [ 120.18631283700006, 22.995005578000075 ], [ 120.186542757000097, 22.997359510000024 ] ] ] } },
{ "type": "Feature", "properties": { "VILLNAME": "藥王里" }, "geometry": { "type": "Polygon", "coordinates": [ [ [ 120.192013737000025, 23.000270882000052 ], [ 120.197779997000112, 22.998216040000045 ], [ 120.196603325000069, 22.995358967000072 ], [ 120.189292259000013, 22.997486861000027 ], [ 120.189968451000027, 22.998576754000055 ], [ 120.192013737000025, 23.000270882000052 ] ] ] } },
{ "type": "Feature", "properties": { "VILLNAME": "光賢里" }, "geometry": { "type": "Polygon", "coordinates": [ [ [ 120.187863229000072, 23.007499469000038 ], [ 120.192321843000059, 23.005327171000033 ], [ 120.19350225300002, 23.005205028000034 ], [ 120.191178356000023, 23.002946779000069 ], [ 120.188691249000044, 23.001675060000025 ], [ 120.187989626000103, 23.000762425000062 ], [ 120.187965941000016, 23.000353416000053 ], [ 120.186951375000035, 23.000412620000077 ], [ 120.186996389000115, 23.002979423000056 ], [ 120.186270161000039, 23.006862104000049 ], [ 120.187863229000072, 23.007499469000038 ] ] ] } }
]
}
